{"type": "FeatureCollection", "features": [{"type": "Feature", "geometry": {"type": "Point", "coordinates": [100.3287352, 5.4141619]}, "properties": {"name": "George Town", "place": "city", "osm_id": 205620850}}, {"type": "Feature", "geometry": {"type": "Point", "coordinates": [100.3145585, 5.3873462]}, "properties": {"name": "Jelutong", "place": "suburb", "osm_id": 249663853}}, {"type": "Feature", "geometry": {"type": "Point", "coordinates": [100.3083211, 5.3517141]}, "properties": {"name": "Batu Uban", "place": "suburb", "osm_id": 254072826}}, {"type": "Feature", "geometry": {"type": "Point", "coordinates": [100.2485887, 5.4708863]}, "properties": {"name": "Batu Ferringhi", "place": "suburb", "osm_id": 254072840}}, {"type": "Feature", "geometry": {"type": "Point", "coordinates": [100.2595968, 5.2948137]}, "properties": {"name": "Bayan Lepas", "place": "town", "osm_id": 254073307}}, {"type": "Feature", "geometry": {"type": "Point", "coordinates": [100.2348979, 5.3506953]}, "properties": {"name": "Balik Pulau", "place": "town", "osm_id": 254073495}}, {"type": "Feature", "geometry": {"type": "Point", "coordinates": [100.2124567, 5.395889]}, "properties": {"name": "Sungai Pinang", "place": "village", "osm_id": 254073815}}, {"type": "Feature", "geometry": {"type": "Point", "coordinates": [100.3099939, 5.3683584]}, "properties": {"name": "Gelugor", "place": "suburb", "osm_id": 254074039}}, {"type": "Feature", "geometry": {"type": "Point", "coordinates": [100.1946564, 5.2831908]}, "properties": {"name": "Gertak Sanggul", "place": "village", "osm_id": 254074066}}, {"type": "Feature", "geometry": {"type": "Point", "coordinates": [100.285231, 5.3248811]}, "properties": {"name": "Bayan Baru", "place": "suburb", "osm_id": 254074290}}, {"type": "Feature", "geometry": {"type": "Point", "coordinates": [100.2699197, 5.2769809]}, "properties": {"name": "Permatang Damar Laut", "place": "village", "osm_id": 254074364}}, {"type": "Feature", "geometry": {"type": "Point", "coordinates": [100.2147458, 5.4578149]}, "properties": {"name": "Teluk Bahang", "place": "suburb", "osm_id": 254074368}}, {"type": "Feature", "geometry": {"type": "Point", "coordinates": [100.2994268, 5.3523319]}, "properties": {"name": "Sungai Dua", "place": "suburb", "osm_id": 1129341149}}, {"type": "Feature", "geometry": {"type": "Point", "coordinates": [100.291008, 5.4559002]}, "properties": {"name": "Permai Village", "place": "neighbourhood", "osm_id": 2946090767}}, {"type": "Feature", "geometry": {"type": "Point", "coordinates": [100.3056236, 5.4509926]}, "properties": {"name": "Tanjong Tokong", "place": "suburb", "osm_id": 2946090768}}, {"type": "Feature", "geometry": {"type": "Point", "coordinates": [100.2778327, 5.4018648]}, "properties": {"name": "Ayer Itam", "place": "city", "osm_id": 2946090769}}, {"type": "Feature", "geometry": {"type": "Point", "coordinates": [100.2850708, 5.39198]}, "properties": {"name": "Farlim", "place": "suburb", "osm_id": 2946090770}}, {"type": "Feature", "geometry": {"type": "Point", "coordinates": [100.3409971, 5.4130557]}, "properties": {"name": "Jeti Lim", "place": "neighbourhood", "osm_id": 4206135189}}, {"type": "Feature", "geometry": {"type": "Point", "coordinates": [100.339338, 5.4171825]}, "properties": {"name": "Little India", "place": "neighbourhood", "osm_id": 4206410706}}, {"type": "Feature", "geometry": {"type": "Point", "coordinates": [100.2324332, 5.2905804]}, "properties": {"name": "Teluk Kumbar", "place": "suburb", "osm_id": 4500087790}}, {"type": "Feature", "geometry": {"type": "Point", "coordinates": [100.2748754, 5.3787214]}, "properties": {"name": "Paya Terubong", "place": "suburb", "osm_id": 4500096791}}, {"type": "Feature", "geometry": {"type": "Point", "coordinates": [100.3061094, 5.3903225]}, "properties": {"name": "Batu Lanchang", "place": "suburb", "osm_id": 4500128092}}, {"type": "Feature", "geometry": {"type": "Point", "coordinates": [100.2681554, 5.3207108]}, "properties": {"name": "Sungai Ara", "place": "suburb", "osm_id": 4500174393}}, {"type": "Feature", "geometry": {"type": "Point", "coordinates": [100.2751026, 5.3387947]}, "properties": {"name": "Relau", "place": "suburb", "osm_id": 4500185492}}, {"type": "Feature", "geometry": {"type": "Point", "coordinates": [100.2076593, 5.3410286]}, "properties": {"name": "Sungai Burong", "place": "hamlet", "osm_id": 4548958190}}, {"type": "Feature", "geometry": {"type": "Point", "coordinates": [100.19635, 5.415471]}, "properties": {"name": "Pantai Aceh", "place": "village", "osm_id": 4548977689}}, {"type": "Feature", "geometry": {"type": "Point", "coordinates": [100.2031926, 5.3521258]}, "properties": {"name": "Jalan Baru", "place": "village", "osm_id": 4548977690}}, {"type": "Feature", "geometry": {"type": "Point", "coordinates": [100.2033368, 5.3067888]}, "properties": {"name": "Pulau Betong", "place": "village", "osm_id": 4548977789}}, {"type": "Feature", "geometry": {"type": "Point", "coordinates": [100.3005409, 5.3364654]}, "properties": {"name": "Sungai Nibong", "place": "suburb", "osm_id": 4576568289}}, {"type": "Feature", "geometry": {"type": "Point", "coordinates": [100.2136408, 5.3031983]}, "properties": {"name": "Hakka Village", "place": "hamlet", "osm_id": 4665268095}}, {"type": "Feature", "geometry": {"type": "Point", "coordinates": [100.22732, 5.295291]}, "properties": {"name": "Kampung Masjid", "place": "hamlet", "osm_id": 4678263091}}, {"type": "Feature", "geometry": {"type": "Point", "coordinates": [100.22308, 5.2869876]}, "properties": {"name": "Kampung Nelayan", "place": "hamlet", "osm_id": 4678263492}}, {"type": "Feature", "geometry": {"type": "Point", "coordinates": [100.2215674, 5.2905761]}, "properties": {"name": "Kampung Suluk", "place": "hamlet", "osm_id": 4678263493}}, {"type": "Feature", "geometry": {"type": "Point", "coordinates": [100.2422242, 5.2842225]}, "properties": {"name": "Sungai Batu", "place": "neighbourhood", "osm_id": 4678301391}}, {"type": "Feature", "geometry": {"type": "Point", "coordinates": [100.3381274, 5.4114954]}, "properties": {"name": "Lee Jetty", "place": "neighbourhood", "osm_id": 4699488091}}, {"type": "Feature", "geometry": {"type": "Point", "coordinates": [100.2269759, 5.332831]}, "properties": {"name": "Pondok Upih", "place": "village", "osm_id": 4700704593}}, {"type": "Feature", "geometry": {"type": "Point", "coordinates": [100.2022462, 5.3927973]}, "properties": {"name": "Kuala Sungai Pinang", "place": "suburb", "osm_id": 4700733189}}, {"type": "Feature", "geometry": {"type": "Point", "coordinates": [100.217132, 5.3337282]}, "properties": {"name": "Pekan Genting", "place": "suburb", "osm_id": 4701650590}}, {"type": "Feature", "geometry": {"type": "Point", "coordinates": [100.2812662, 5.2859949]}, "properties": {"name": "Batu Maung", "place": "suburb", "osm_id": 4851165510}}, {"type": "Feature", "geometry": {"type": "Point", "coordinates": [100.2230059, 5.3599318]}, "properties": {"name": "Titi Teras", "place": "village", "osm_id": 4926550321}}, {"type": "Feature", "geometry": {"type": "Point", "coordinates": [100.2874505, 5.2776107]}, "properties": {"name": "Teluk Tempoyak", "place": "hamlet", "osm_id": 5052894322}}, {"type": "Feature", "geometry": {"type": "Point", "coordinates": [100.3157405, 5.3641179]}, "properties": {"name": "The LIGHT Waterfront", "place": "neighbourhood", "osm_id": 5065431567}}, {"type": "Feature", "geometry": {"type": "Point", "coordinates": [100.2725689, 5.3030128]}, "properties": {"name": "Sungai Tiram", "place": "suburb", "osm_id": 5170620608}}, {"type": "Feature", "geometry": {"type": "Point", "coordinates": [100.3388158, 5.4119025]}, "properties": {"name": "Tan Jetty", "place": "neighbourhood", "osm_id": 5340034249}}, {"type": "Feature", "geometry": {"type": "Point", "coordinates": [100.3121198, 5.3464491]}, "properties": {"name": "Bayan Mutiara", "place": "neighbourhood", "osm_id": 6055050422}}, {"type": "Feature", "geometry": {"type": "Point", "coordinates": [100.299335, 5.3893167]}, "properties": {"name": "Island Park", "place": "neighbourhood", "osm_id": 6116324383}}, {"type": "Feature", "geometry": {"type": "Point", "coordinates": [100.2580128, 5.2874982]}, "properties": {"name": "Kampung Seronok", "place": "hamlet", "osm_id": 6701011565}}, {"type": "Feature", "geometry": {"type": "Point", "coordinates": [100.2569154, 5.2828861]}, "properties": {"name": "Kampung Binjal", "place": "hamlet", "osm_id": 6701011566}}, {"type": "Feature", "geometry": {"type": "Point", "coordinates": [100.2787216, 5.3962494]}, "properties": {"name": "Kampung Lembah Ria", "place": "neighbourhood", "osm_id": 7146791550}}, {"type": "Feature", "geometry": {"type": "Point", "coordinates": [100.2821548, 5.4077068]}, "properties": {"name": "Hye Keat Estate", "place": "neighbourhood", "osm_id": 7175322771}}, {"type": "Feature", "geometry": {"type": "Point", "coordinates": [100.284463, 5.4647757]}, "properties": {"name": "Tanjong Bungah", "place": "suburb", "osm_id": 7394089584}}, {"type": "Feature", "geometry": {"type": "Point", "coordinates": [100.2816039, 5.2851365]}, "properties": {"name": "Taman Iping (Taman Batu Maung)", "place": "neighbourhood", "osm_id": 8128160241}}, {"type": "Feature", "geometry": {"type": "Point", "coordinates": [100.3339606, 5.4066277]}, "properties": {"name": "Gat Lebuh Macallum", "place": "neighbourhood", "osm_id": 9095899003}}, {"type": "Feature", "geometry": {"type": "Point", "coordinates": [100.3276641, 5.3976095]}, "properties": {"name": "Bandar Sri Pinang", "place": "neighbourhood", "osm_id": 9095917925}}, {"type": "Feature", "geometry": {"type": "Point", "coordinates": [100.3128837, 5.3853066]}, "properties": {"name": "Bukit Dumbar", "place": "neighbourhood", "osm_id": 9095917927}}, {"type": "Feature", "geometry": {"type": "Point", "coordinates": [100.3038753, 5.3824312]}, "properties": {"name": "Island Glades", "place": "neighbourhood", "osm_id": 9095917929}}, {"type": "Feature", "geometry": {"type": "Point", "coordinates": [100.2131486, 5.3851743]}, "properties": {"name": "Sungai Rusa", "place": "village", "osm_id": 9095917930}}, {"type": "Feature", "geometry": {"type": "Point", "coordinates": [100.306229, 5.3797465]}, "properties": {"name": "Bukit Gelugor", "place": "neighbourhood", "osm_id": 9095917934}}, {"type": "Feature", "geometry": {"type": "Point", "coordinates": [100.3101677, 5.3937291]}, "properties": {"name": "Eastern Garden", "place": "neighbourhood", "osm_id": 9096628823}}, {"type": "Feature", "geometry": {"type": "Point", "coordinates": [100.3372627, 5.4105074]}, "properties": {"name": "Jeti Yeoh", "place": "neighbourhood", "osm_id": 9141191878}}, {"type": "Feature", "geometry": {"type": "Point", "coordinates": [100.337459, 5.4113073]}, "properties": {"name": "Jeti Baru", "place": "neighbourhood", "osm_id": 9141191927}}, {"type": "Feature", "geometry": {"type": "Point", "coordinates": [100.3101445, 5.4131534]}, "properties": {"name": "Dhoby Ghaut", "place": "neighbourhood", "osm_id": 9196670404}}, {"type": "Feature", "geometry": {"type": "Point", "coordinates": [100.3092801, 5.4107993]}, "properties": {"name": "Kebun Lama", "place": "neighbourhood", "osm_id": 9459472900}}, {"type": "Feature", "geometry": {"type": "Point", "coordinates": [100.2955142, 5.4053493]}, "properties": {"name": "Kampung Baru", "place": "hamlet", "osm_id": 9488460915}}, {"type": "Feature", "geometry": {"type": "Point", "coordinates": [100.2663835, 5.3223655]}, "properties": {"name": "Desa Ria", "place": "neighbourhood", "osm_id": 9551744680}}, {"type": "Feature", "geometry": {"type": "Point", "coordinates": [100.2744907, 5.3272821]}, "properties": {"name": "Taman Tunas Muda", "place": "neighbourhood", "osm_id": 9558712267}}, {"type": "Feature", "geometry": {"type": "Point", "coordinates": [100.2609834, 5.2979538]}, "properties": {"name": "Kampung Air Terjun", "place": "neighbourhood", "osm_id": 9784382595}}, {"type": "Feature", "geometry": {"type": "Point", "coordinates": [100.2623192, 5.2973972]}, "properties": {"name": "Kampung Perlis", "place": "neighbourhood", "osm_id": 9784382596}}, {"type": "Feature", "geometry": {"type": "Point", "coordinates": [100.2708438, 5.3286821]}, "properties": {"name": "Taman Pagar Buloh", "place": "neighbourhood", "osm_id": 9959625936}}, {"type": "Feature", "geometry": {"type": "Point", "coordinates": [100.2040335, 5.3137857]}, "properties": {"name": "Kampung Perlis", "place": "hamlet", "osm_id": 10082182968}}, {"type": "Feature", "geometry": {"type": "Point", "coordinates": [100.2159302, 5.3388712]}, "properties": {"name": "Kampung Permatang Tengah", "place": "hamlet", "osm_id": 10082182979}}, {"type": "Feature", "geometry": {"type": "Point", "coordinates": [100.313687, 5.3775669]}, "properties": {"name": "Bukit Tunku Kudin", "place": "neighbourhood", "osm_id": 10603786361}}, {"type": "Feature", "geometry": {"type": "Point", "coordinates": [100.3370992, 5.4092338]}, "properties": {"name": "Kampung Merdeka", "place": "neighbourhood", "osm_id": 10603805393}}, {"type": "Feature", "geometry": {"type": "Point", "coordinates": [100.2922336, 5.3036085]}, "properties": {"name": "Zon Perindustrian Bebas Bayan Lepas Fasa IV", "place": "neighbourhood", "osm_id": 10688532178}}, {"type": "Feature", "geometry": {"type": "Point", "coordinates": [100.2975164, 5.3242062]}, "properties": {"name": "Zon Perindustrian Bebas Bayan Lepas Fasa III", "place": "neighbourhood", "osm_id": 10688700612}}, {"type": "Feature", "geometry": {"type": "Point", "coordinates": [100.3197918, 5.4001655]}, "properties": {"name": "West Jelutong", "place": "neighbourhood", "osm_id": 11040135584}}, {"type": "Feature", "geometry": {"type": "Point", "coordinates": [100.3071594, 5.3853632]}, "properties": {"name": "Taman Gelugor", "place": "neighbourhood", "osm_id": 11102636491}}, {"type": "Feature", "geometry": {"type": "Point", "coordinates": [100.3101928, 5.387132]}, "properties": {"name": "Taman Jelutong", "place": "neighbourhood", "osm_id": 11102636492}}, {"type": "Feature", "geometry": {"type": "Point", "coordinates": [100.3136275, 5.4266723]}, "properties": {"name": "Kampung Sireh", "place": "neighbourhood", "osm_id": 12167300640}}, {"type": "Feature", "geometry": {"type": "Point", "coordinates": [100.3150379, 5.3861725]}, "properties": {"name": "Kampung Ban Liow", "place": "neighbourhood", "osm_id": 12564889410}}]}