{"type": "FeatureCollection", "features": [{"type": "Feature", "geometry": {"type": "Point", "coordinates": [100.3287352, 5.4141619]}, "properties": {"name": "George Town", "place": "city", "osm_id": 205620850}}, {"type": "Feature", "geometry": {"type": "Point", "coordinates": [100.3697208, 5.4082015]}, "properties": {"name": "Butterworth", "place": "city", "osm_id": 205623582}}, {"type": "Feature", "geometry": {"type": "Point", "coordinates": [100.3145585, 5.3873462]}, "properties": {"name": "Jelutong", "place": "suburb", "osm_id": 249663853}}, {"type": "Feature", "geometry": {"type": "Point", "coordinates": [100.3083211, 5.3517141]}, "properties": {"name": "Batu Uban", "place": "suburb", "osm_id": 254072826}}, {"type": "Feature", "geometry": {"type": "Point", "coordinates": [100.2485887, 5.4708863]}, "properties": {"name": "Batu Ferringhi", "place": "suburb", "osm_id": 254072840}}, {"type": "Feature", "geometry": {"type": "Point", "coordinates": [100.554626, 5.5126654]}, "properties": {"name": "Padang Serai", "place": "town", "osm_id": 254072842}}, {"type": "Feature", "geometry": {"type": "Point", "coordinates": [100.507695, 5.340172]}, "properties": {"name": "Machang Bubok", "place": "suburb", "osm_id": 254072874}}, {"type": "Feature", "geometry": {"type": "Point", "coordinates": [100.423494, 5.568913]}, "properties": {"name": "Bumbong", "place": "hamlet", "osm_id": 254072907}}, {"type": "Feature", "geometry": {"type": "Point", "coordinates": [100.374018, 5.5869272]}, "properties": {"name": "Kota Kuala Muda", "place": "village", "osm_id": 254072928}}, {"type": "Feature", "geometry": {"type": "Point", "coordinates": [100.4785191, 5.1700963]}, "properties": {"name": "Nibong Tebal", "place": "town", "osm_id": 254072952}}, {"type": "Feature", "geometry": {"type": "Point", "coordinates": [100.5902252, 5.1404327]}, "properties": {"name": "Lubok Buntar", "place": "town", "osm_id": 254072976}}, {"type": "Feature", "geometry": {"type": "Point", "coordinates": [100.462103, 5.272568]}, "properties": {"name": "Bukit Tambun", "place": "suburb", "osm_id": 254073100}}, {"type": "Feature", "geometry": {"type": "Point", "coordinates": [100.4418379, 5.5867352]}, "properties": {"name": "Tikam Batu", "place": "town", "osm_id": 254073244}}, {"type": "Feature", "geometry": {"type": "Point", "coordinates": [100.2595968, 5.2948137]}, "properties": {"name": "Bayan Lepas", "place": "town", "osm_id": 254073307}}, {"type": "Feature", "geometry": {"type": "Point", "coordinates": [100.4893897, 5.1300016]}, "properties": {"name": "Parit Buntar", "place": "town", "osm_id": 254073404}}, {"type": "Feature", "geometry": {"type": "Point", "coordinates": [100.2348979, 5.3506953]}, "properties": {"name": "Balik Pulau", "place": "town", "osm_id": 254073495}}, {"type": "Feature", "geometry": {"type": "Point", "coordinates": [100.550627, 5.17111]}, "properties": {"name": "Sungai Kechil Hilir", "place": "hamlet", "osm_id": 254073599}}, {"type": "Feature", "geometry": {"type": "Point", "coordinates": [100.3957272, 5.5601859]}, "properties": {"name": "Permatang Janggus", "place": "hamlet", "osm_id": 254073621}}, {"type": "Feature", "geometry": {"type": "Point", "coordinates": [100.2124567, 5.395889]}, "properties": {"name": "Sungai Pinang", "place": "village", "osm_id": 254073815}}, {"type": "Feature", "geometry": {"type": "Point", "coordinates": [100.3099939, 5.3683584]}, "properties": {"name": "Gelugor", "place": "suburb", "osm_id": 254074039}}, {"type": "Feature", "geometry": {"type": "Point", "coordinates": [100.3811397, 5.5269796]}, "properties": {"name": "Penaga", "place": "town", "osm_id": 254074040}}, {"type": "Feature", "geometry": {"type": "Point", "coordinates": [100.1946564, 5.2831908]}, "properties": {"name": "Gertak Sanggul", "place": "village", "osm_id": 254074066}}, {"type": "Feature", "geometry": {"type": "Point", "coordinates": [100.285231, 5.3248811]}, "properties": {"name": "Bayan Baru", "place": "suburb", "osm_id": 254074290}}, {"type": "Feature", "geometry": {"type": "Point", "coordinates": [100.5340357, 5.2984699]}, "properties": {"name": "Junjong", "place": "village", "osm_id": 254074338}}, {"type": "Feature", "geometry": {"type": "Point", "coordinates": [100.2699197, 5.2769809]}, "properties": {"name": "Permatang Damar Laut", "place": "village", "osm_id": 254074364}}, {"type": "Feature", "geometry": {"type": "Point", "coordinates": [100.2147458, 5.4578149]}, "properties": {"name": "Teluk Bahang", "place": "suburb", "osm_id": 254074368}}, {"type": "Feature", "geometry": {"type": "Point", "coordinates": [100.4255309, 5.5167642]}, "properties": {"name": "Kepala Batas", "place": "town", "osm_id": 254074443}}, {"type": "Feature", "geometry": {"type": "Point", "coordinates": [100.5039962, 5.5520251]}, "properties": {"name": "Pinang Tunggal", "place": "suburb", "osm_id": 589826055}}, {"type": "Feature", "geometry": {"type": "Point", "coordinates": [100.4817259, 5.5985459]}, "properties": {"name": "Taman Kempas", "place": "hamlet", "osm_id": 593074587}}, {"type": "Feature", "geometry": {"type": "Point", "coordinates": [100.4708635, 5.5788104]}, "properties": {"name": "Kampung Pokok Assam", "place": "village", "osm_id": 593074591}}, {"type": "Feature", "geometry": {"type": "Point", "coordinates": [100.4901402, 5.4844382]}, "properties": {"name": "Tasek Gelugor", "place": "town", "osm_id": 601159584}}, {"type": "Feature", "geometry": {"type": "Point", "coordinates": [100.4609867, 5.3642519]}, "properties": {"name": "Bukit Mertajam", "place": "city", "osm_id": 605217805}}, {"type": "Feature", "geometry": {"type": "Point", "coordinates": [100.5213578, 5.5055489]}, "properties": {"name": "Kampung Selamat", "place": "village", "osm_id": 621096165}}, {"type": "Feature", "geometry": {"type": "Point", "coordinates": [100.5328089, 5.543779]}, "properties": {"name": "Ekor Kucing", "place": "hamlet", "osm_id": 621548518}}, {"type": "Feature", "geometry": {"type": "Point", "coordinates": [100.5306648, 5.5603424]}, "properties": {"name": "Kampung Pantai Perai", "place": "hamlet", "osm_id": 621548568}}, {"type": "Feature", "geometry": {"type": "Point", "coordinates": [100.4742619, 5.5976254]}, "properties": {"name": "Taman Permai", "place": "hamlet", "osm_id": 642883833}}, {"type": "Feature", "geometry": {"type": "Point", "coordinates": [100.5895402, 5.5272606]}, "properties": {"name": "Kampung Teluk Sera", "place": "hamlet", "osm_id": 647429103}}, {"type": "Feature", "geometry": {"type": "Point", "coordinates": [100.4647459, 5.3995634]}, "properties": {"name": "Kubang Semang", "place": "village", "osm_id": 647516450}}, {"type": "Feature", "geometry": {"type": "Point", "coordinates": [100.5324792, 5.4293914]}, "properties": {"name": "Lunas", "place": "town", "osm_id": 647516496}}, {"type": "Feature", "geometry": {"type": "Point", "coordinates": [100.4571792, 5.4691851]}, "properties": {"name": "Lahar Yooi", "place": "village", "osm_id": 647516520}}, {"type": "Feature", "geometry": {"type": "Point", "coordinates": [100.5463941, 5.4900438]}, "properties": {"name": "Permatang Tok Dik", "place": "hamlet", "osm_id": 647516577}}, {"type": "Feature", "geometry": {"type": "Point", "coordinates": [100.5513591, 5.447666]}, "properties": {"name": "Sungai Seluang", "place": "village", "osm_id": 647516604}}, {"type": "Feature", "geometry": {"type": "Point", "coordinates": [100.557226, 5.476028]}, "properties": {"name": "Naga Lilit", "place": "hamlet", "osm_id": 647516632}}, {"type": "Feature", "geometry": {"type": "Point", "coordinates": [100.5525705, 5.3663769]}, "properties": {"name": "Kulim", "place": "city", "osm_id": 648755642}}, {"type": "Feature", "geometry": {"type": "Point", "coordinates": [100.5464288, 5.3908144]}, "properties": {"name": "Keladi", "place": "suburb", "osm_id": 649034657}}, {"type": "Feature", "geometry": {"type": "Point", "coordinates": [100.5651691, 5.391381]}, "properties": {"name": "Kelang Lama", "place": "suburb", "osm_id": 649034669}}, {"type": "Feature", "geometry": {"type": "Point", "coordinates": [100.3397126, 5.5744608]}, "properties": {"name": "Kuala Muda", "place": "village", "osm_id": 655161563}}, {"type": "Feature", "geometry": {"type": "Point", "coordinates": [100.3759619, 5.5460466]}, "properties": {"name": "Pasir Gebu", "place": "hamlet", "osm_id": 655166604}}, {"type": "Feature", "geometry": {"type": "Point", "coordinates": [100.2994268, 5.3523319]}, "properties": {"name": "Sungai Dua", "place": "suburb", "osm_id": 1129341149}}, {"type": "Feature", "geometry": {"type": "Point", "coordinates": [100.3817056, 5.4427154]}, "properties": {"name": "Bagan Ajam", "place": "suburb", "osm_id": 1728577086}}, {"type": "Feature", "geometry": {"type": "Point", "coordinates": [100.4629732, 5.387247]}, "properties": {"name": "Kampung Tok Elong", "place": "hamlet", "osm_id": 2618435188}}, {"type": "Feature", "geometry": {"type": "Point", "coordinates": [100.291008, 5.4559002]}, "properties": {"name": "Permai Village", "place": "neighbourhood", "osm_id": 2946090767}}, {"type": "Feature", "geometry": {"type": "Point", "coordinates": [100.3056236, 5.4509926]}, "properties": {"name": "Tanjong Tokong", "place": "suburb", "osm_id": 2946090768}}, {"type": "Feature", "geometry": {"type": "Point", "coordinates": [100.2778327, 5.4018648]}, "properties": {"name": "Ayer Itam", "place": "city", "osm_id": 2946090769}}, {"type": "Feature", "geometry": {"type": "Point", "coordinates": [100.2850708, 5.39198]}, "properties": {"name": "Farlim", "place": "suburb", "osm_id": 2946090770}}, {"type": "Feature", "geometry": {"type": "Point", "coordinates": [100.4961868, 5.2234935]}, "properties": {"name": "Sungai Bakap", "place": "suburb", "osm_id": 3201529715}}, {"type": "Feature", "geometry": {"type": "Point", "coordinates": [100.5604952, 5.5557962]}, "properties": {"name": "Kampong Padang Buloh", "place": "village", "osm_id": 3363779419}}, {"type": "Feature", "geometry": {"type": "Point", "coordinates": [100.5707418, 5.456389]}, "properties": {"name": "Kampung Bukit Sarang Ayam", "place": "village", "osm_id": 3363779420}}, {"type": "Feature", "geometry": {"type": "Point", "coordinates": [100.5097367, 5.5629216]}, "properties": {"name": "Kampung Seberang Tok Soh", "place": "village", "osm_id": 3363779425}}, {"type": "Feature", "geometry": {"type": "Point", "coordinates": [100.5773745, 5.5344919]}, "properties": {"name": "Lesung Tujuh", "place": "hamlet", "osm_id": 3363779426}}, {"type": "Feature", "geometry": {"type": "Point", "coordinates": [100.4973023, 5.13131]}, "properties": {"name": "Bandar Baharu", "place": "town", "osm_id": 3371532178}}, {"type": "Feature", "geometry": {"type": "Point", "coordinates": [100.4209512, 5.14682]}, "properties": {"name": "Sungai Acheh", "place": "village", "osm_id": 3607697241}}, {"type": "Feature", "geometry": {"type": "Point", "coordinates": [100.4765976, 5.2817072]}, "properties": {"name": "Simpang Ampat", "place": "town", "osm_id": 3607749722}}, {"type": "Feature", "geometry": {"type": "Point", "coordinates": [100.4919135, 5.1987961]}, "properties": {"name": "Sungai Jawi", "place": "suburb", "osm_id": 3607758869}}, {"type": "Feature", "geometry": {"type": "Point", "coordinates": [100.4785866, 5.2996654]}, "properties": {"name": "Permatang Tinggi", "place": "suburb", "osm_id": 3607758894}}, {"type": "Feature", "geometry": {"type": "Point", "coordinates": [100.4209602, 5.3659927]}, "properties": {"name": "Bukit Tengah", "place": "suburb", "osm_id": 3607763936}}, {"type": "Feature", "geometry": {"type": "Point", "coordinates": [100.4125105, 5.4124702]}, "properties": {"name": "Permatang Pauh", "place": "town", "osm_id": 3607770768}}, {"type": "Feature", "geometry": {"type": "Point", "coordinates": [100.5202332, 5.2840918]}, "properties": {"name": "Tasek", "place": "village", "osm_id": 3607777329}}, {"type": "Feature", "geometry": {"type": "Point", "coordinates": [100.4360739, 5.3704878]}, "properties": {"name": "Bandar Perda", "place": "suburb", "osm_id": 3607777330}}, {"type": "Feature", "geometry": {"type": "Point", "coordinates": [100.4607269, 5.4050959]}, "properties": {"name": "Kampung Petani", "place": "hamlet", "osm_id": 3608496295}}, {"type": "Feature", "geometry": {"type": "Point", "coordinates": [100.4993417, 5.3994928]}, "properties": {"name": "Mengkuang", "place": "village", "osm_id": 3608505439}}, {"type": "Feature", "geometry": {"type": "Point", "coordinates": [100.5230389, 5.3900912]}, "properties": {"name": "Sungai Lembu", "place": "village", "osm_id": 3608505440}}, {"type": "Feature", "geometry": {"type": "Point", "coordinates": [100.4607873, 5.4136653]}, "properties": {"name": "Kampung Pelet", "place": "hamlet", "osm_id": 3608505970}}, {"type": "Feature", "geometry": {"type": "Point", "coordinates": [100.472472, 5.3814978]}, "properties": {"name": "Perkampungan Berapit", "place": "village", "osm_id": 3608507277}}, {"type": "Feature", "geometry": {"type": "Point", "coordinates": [100.4571527, 5.4075171]}, "properties": {"name": "Bukit Indera Muda", "place": "hamlet", "osm_id": 3608507278}}, {"type": "Feature", "geometry": {"type": "Point", "coordinates": [100.4691157, 5.2019619]}, "properties": {"name": "Changkat", "place": "village", "osm_id": 3609310236}}, {"type": "Feature", "geometry": {"type": "Point", "coordinates": [100.4395848, 5.2441034]}, "properties": {"name": "Bandar Cassia", "place": "suburb", "osm_id": 3609310237}}, {"type": "Feature", "geometry": {"type": "Point", "coordinates": [100.4511327, 5.4887524]}, "properties": {"name": "Ara Rendang", "place": "hamlet", "osm_id": 3797184951}}, {"type": "Feature", "geometry": {"type": "Point", "coordinates": [100.4357759, 5.5548945]}, "properties": {"name": "Bumbung Lima", "place": "village", "osm_id": 3797184952}}, {"type": "Feature", "geometry": {"type": "Point", "coordinates": [100.4749385, 5.427962]}, "properties": {"name": "Guar Perahu", "place": "hamlet", "osm_id": 3797184953}}, {"type": "Feature", "geometry": {"type": "Point", "coordinates": [100.4789719, 5.4475694]}, "properties": {"name": "Kampung Guar Petai", "place": "hamlet", "osm_id": 3797184954}}, {"type": "Feature", "geometry": {"type": "Point", "coordinates": [100.4336343, 5.5428198]}, "properties": {"name": "Kampung Permatang Tinggi 'A'", "place": "hamlet", "osm_id": 3797187559}}, {"type": "Feature", "geometry": {"type": "Point", "coordinates": [100.4598276, 5.473833]}, "properties": {"name": "Lubuk Meriam", "place": "hamlet", "osm_id": 3797187560}}, {"type": "Feature", "geometry": {"type": "Point", "coordinates": [100.4659127, 5.4224012]}, "properties": {"name": "Padang Ibu", "place": "hamlet", "osm_id": 3797187561}}, {"type": "Feature", "geometry": {"type": "Point", "coordinates": [100.4738987, 5.4539418]}, "properties": {"name": "Padang Menora", "place": "village", "osm_id": 3797187562}}, {"type": "Feature", "geometry": {"type": "Point", "coordinates": [100.4619304, 5.4242969]}, "properties": {"name": "Kampung Padang Tembusu", "place": "hamlet", "osm_id": 3797187563}}, {"type": "Feature", "geometry": {"type": "Point", "coordinates": [100.464869, 5.4057871]}, "properties": {"name": "Penanti", "place": "town", "osm_id": 3797187564}}, {"type": "Feature", "geometry": {"type": "Point", "coordinates": [100.4309428, 5.538864]}, "properties": {"name": "Permatang Tiga Ringgit", "place": "hamlet", "osm_id": 3797187565}}, {"type": "Feature", "geometry": {"type": "Point", "coordinates": [100.4573954, 5.4842513]}, "properties": {"name": "Pokok Sena", "place": "village", "osm_id": 3797187566}}, {"type": "Feature", "geometry": {"type": "Point", "coordinates": [100.4422255, 5.4964105]}, "properties": {"name": "Pongsu Seribu", "place": "hamlet", "osm_id": 3797187567}}, {"type": "Feature", "geometry": {"type": "Point", "coordinates": [100.4815779, 5.4083881]}, "properties": {"name": "Kampung Simpang Tiga Kubang Ulu", "place": "hamlet", "osm_id": 3797187568}}, {"type": "Feature", "geometry": {"type": "Point", "coordinates": [100.555398, 5.5608005]}, "properties": {"name": "Kampung Kubang Sapi", "place": "hamlet", "osm_id": 3948538469}}, {"type": "Feature", "geometry": {"type": "Point", "coordinates": [100.5816592, 5.4379879]}, "properties": {"name": "Kampung Padang Cina", "place": "village", "osm_id": 3948538470}}, {"type": "Feature", "geometry": {"type": "Point", "coordinates": [100.5146807, 5.5511055]}, "properties": {"name": "Kampung Lembah Raja", "place": "hamlet", "osm_id": 3986884457}}, {"type": "Feature", "geometry": {"type": "Point", "coordinates": [100.4959953, 5.4830836]}, "properties": {"name": "Taman Saga", "place": "neighbourhood", "osm_id": 3991321463}}, {"type": "Feature", "geometry": {"type": "Point", "coordinates": [100.496165, 5.4876692]}, "properties": {"name": "Taman Sepadu Baru", "place": "neighbourhood", "osm_id": 3991321464}}, {"type": "Feature", "geometry": {"type": "Point", "coordinates": [100.5061995, 5.519518]}, "properties": {"name": "Kubang Menerong", "place": "village", "osm_id": 3997897107}}, {"type": "Feature", "geometry": {"type": "Point", "coordinates": [100.4812919, 5.4949018]}, "properties": {"name": "Kampung Air Melintas Besar", "place": "hamlet", "osm_id": 3997897108}}, {"type": "Feature", "geometry": {"type": "Point", "coordinates": [100.483175, 5.5046483]}, "properties": {"name": "Kampung Tok Bedu", "place": "hamlet", "osm_id": 3997897109}}, {"type": "Feature", "geometry": {"type": "Point", "coordinates": [100.4712641, 5.4886146]}, "properties": {"name": "Pokok Machang", "place": "hamlet", "osm_id": 3997897112}}, {"type": "Feature", "geometry": {"type": "Point", "coordinates": [100.4534622, 5.4650263]}, "properties": {"name": "Nyior Sebatang", "place": "hamlet", "osm_id": 3999680058}}, {"type": "Feature", "geometry": {"type": "Point", "coordinates": [100.4293574, 5.4446895]}, "properties": {"name": "Sungai Dua", "place": "suburb", "osm_id": 4001138437}}, {"type": "Feature", "geometry": {"type": "Point", "coordinates": [100.3409971, 5.4130557]}, "properties": {"name": "Jeti Lim", "place": "neighbourhood", "osm_id": 4206135189}}, {"type": "Feature", "geometry": {"type": "Point", "coordinates": [100.339338, 5.4171825]}, "properties": {"name": "Little India", "place": "neighbourhood", "osm_id": 4206410706}}, {"type": "Feature", "geometry": {"type": "Point", "coordinates": [100.5923533, 5.5988659]}, "properties": {"name": "Kampung Jerong", "place": "village", "osm_id": 4307545705}}, {"type": "Feature", "geometry": {"type": "Point", "coordinates": [100.481474, 5.3334084]}, "properties": {"name": "Alma", "place": "suburb", "osm_id": 4498826591}}, {"type": "Feature", "geometry": {"type": "Point", "coordinates": [100.488612, 5.3462329]}, "properties": {"name": "Cherok To'kun", "place": "village", "osm_id": 4498826592}}, {"type": "Feature", "geometry": {"type": "Point", "coordinates": [100.2324332, 5.2905804]}, "properties": {"name": "Teluk Kumbar", "place": "suburb", "osm_id": 4500087790}}, {"type": "Feature", "geometry": {"type": "Point", "coordinates": [100.2748754, 5.3787214]}, "properties": {"name": "Paya Terubong", "place": "suburb", "osm_id": 4500096791}}, {"type": "Feature", "geometry": {"type": "Point", "coordinates": [100.3061094, 5.3903225]}, "properties": {"name": "Batu Lanchang", "place": "suburb", "osm_id": 4500128092}}, {"type": "Feature", "geometry": {"type": "Point", "coordinates": [100.2681554, 5.3207108]}, "properties": {"name": "Sungai Ara", "place": "suburb", "osm_id": 4500174393}}, {"type": "Feature", "geometry": {"type": "Point", "coordinates": [100.2751026, 5.3387947]}, "properties": {"name": "Relau", "place": "suburb", "osm_id": 4500185492}}, {"type": "Feature", "geometry": {"type": "Point", "coordinates": [100.37776, 5.4298456]}, "properties": {"name": "Bagan Jermal", "place": "suburb", "osm_id": 4500247189}}, {"type": "Feature", "geometry": {"type": "Point", "coordinates": [100.37104, 5.391019]}, "properties": {"name": "Bagan Dalam", "place": "suburb", "osm_id": 4500248789}}, {"type": "Feature", "geometry": {"type": "Point", "coordinates": [100.3909515, 5.4305872]}, "properties": {"name": "Mak Mandin", "place": "suburb", "osm_id": 4500729189}}, {"type": "Feature", "geometry": {"type": "Point", "coordinates": [100.4024633, 5.3949534]}, "properties": {"name": "Seberang Jaya", "place": "suburb", "osm_id": 4529945790}}, {"type": "Feature", "geometry": {"type": "Point", "coordinates": [100.3821843, 5.3870844]}, "properties": {"name": "Perai", "place": "suburb", "osm_id": 4529962389}}, {"type": "Feature", "geometry": {"type": "Point", "coordinates": [100.2076593, 5.3410286]}, "properties": {"name": "Sungai Burong", "place": "hamlet", "osm_id": 4548958190}}, {"type": "Feature", "geometry": {"type": "Point", "coordinates": [100.19635, 5.415471]}, "properties": {"name": "Pantai Aceh", "place": "village", "osm_id": 4548977689}}, {"type": "Feature", "geometry": {"type": "Point", "coordinates": [100.2031926, 5.3521258]}, "properties": {"name": "Jalan Baru", "place": "village", "osm_id": 4548977690}}, {"type": "Feature", "geometry": {"type": "Point", "coordinates": [100.2033368, 5.3067888]}, "properties": {"name": "Pulau Betong", "place": "village", "osm_id": 4548977789}}, {"type": "Feature", "geometry": {"type": "Point", "coordinates": [100.4362797, 5.3430858]}, "properties": {"name": "Juru", "place": "suburb", "osm_id": 4559954908}}, {"type": "Feature", "geometry": {"type": "Point", "coordinates": [100.4297218, 5.531281]}, "properties": {"name": "Lahar Ikan Mati", "place": "hamlet", "osm_id": 4571594024}}, {"type": "Feature", "geometry": {"type": "Point", "coordinates": [100.472093, 5.432532]}, "properties": {"name": "Mengkuang Mak Sulong", "place": "hamlet", "osm_id": 4573654948}}, {"type": "Feature", "geometry": {"type": "Point", "coordinates": [100.4667628, 5.4632965]}, "properties": {"name": "Padang Tonson", "place": "hamlet", "osm_id": 4573655628}}, {"type": "Feature", "geometry": {"type": "Point", "coordinates": [100.3005409, 5.3364654]}, "properties": {"name": "Sungai Nibong", "place": "suburb", "osm_id": 4576568289}}, {"type": "Feature", "geometry": {"type": "Point", "coordinates": [100.4522054, 5.4961303]}, "properties": {"name": "Kampung Tersusun Pongsu Seribu", "place": "hamlet", "osm_id": 4577894697}}, {"type": "Feature", "geometry": {"type": "Point", "coordinates": [100.5057018, 5.3094598]}, "properties": {"name": "Bukit Teh", "place": "hamlet", "osm_id": 4583086889}}, {"type": "Feature", "geometry": {"type": "Point", "coordinates": [100.5827034, 5.5473608]}, "properties": {"name": "Kampung Kemumbung", "place": "village", "osm_id": 4586489498}}, {"type": "Feature", "geometry": {"type": "Point", "coordinates": [100.4163554, 5.4017989]}, "properties": {"name": "Permatang Janggus", "place": "hamlet", "osm_id": 4596491083}}, {"type": "Feature", "geometry": {"type": "Point", "coordinates": [100.4323996, 5.4085432]}, "properties": {"name": "Kampung Bukit Merah", "place": "hamlet", "osm_id": 4596491087}}, {"type": "Feature", "geometry": {"type": "Point", "coordinates": [100.4375157, 5.4112153]}, "properties": {"name": "Kampung Permatang Ara", "place": "hamlet", "osm_id": 4596491088}}, {"type": "Feature", "geometry": {"type": "Point", "coordinates": [100.4354132, 5.4143494]}, "properties": {"name": "Permatang Rambai", "place": "hamlet", "osm_id": 4596492689}}, {"type": "Feature", "geometry": {"type": "Point", "coordinates": [100.4359831, 5.4250183]}, "properties": {"name": "Pengkalan Tambang", "place": "hamlet", "osm_id": 4596492690}}, {"type": "Feature", "geometry": {"type": "Point", "coordinates": [100.4354762, 5.4296564]}, "properties": {"name": "Kampung Kota", "place": "hamlet", "osm_id": 4596492691}}, {"type": "Feature", "geometry": {"type": "Point", "coordinates": [100.4291368, 5.4409836]}, "properties": {"name": "Pengkalan Macang", "place": "hamlet", "osm_id": 4596492693}}, {"type": "Feature", "geometry": {"type": "Point", "coordinates": [100.4291287, 5.4673491]}, "properties": {"name": "Permatang Sungai Dua", "place": "village", "osm_id": 4596492694}}, {"type": "Feature", "geometry": {"type": "Point", "coordinates": [100.4287492, 5.470696]}, "properties": {"name": "Kampung Tok Rai", "place": "hamlet", "osm_id": 4596492695}}, {"type": "Feature", "geometry": {"type": "Point", "coordinates": [100.4298784, 5.4745915]}, "properties": {"name": "Kampung Setol", "place": "hamlet", "osm_id": 4596492696}}, {"type": "Feature", "geometry": {"type": "Point", "coordinates": [100.4253615, 5.483608]}, "properties": {"name": "Permatang Buloh", "place": "village", "osm_id": 4596492697}}, {"type": "Feature", "geometry": {"type": "Point", "coordinates": [100.4273775, 5.5249731]}, "properties": {"name": "Kampung Dato'", "place": "hamlet", "osm_id": 4596492769}}, {"type": "Feature", "geometry": {"type": "Point", "coordinates": [100.4634333, 5.3840463]}, "properties": {"name": "Tanah Liat", "place": "village", "osm_id": 4605345795}}, {"type": "Feature", "geometry": {"type": "Point", "coordinates": [100.4452873, 5.5891213]}, "properties": {"name": "Taman Seri Pekula 1", "place": "neighbourhood", "osm_id": 4618404914}}, {"type": "Feature", "geometry": {"type": "Point", "coordinates": [100.4263315, 5.4813738]}, "properties": {"name": "Pokok Simpor", "place": "hamlet", "osm_id": 4618427253}}, {"type": "Feature", "geometry": {"type": "Point", "coordinates": [100.4217404, 5.4256656]}, "properties": {"name": "Kampong Tanjong Putus", "place": "hamlet", "osm_id": 4622276532}}, {"type": "Feature", "geometry": {"type": "Point", "coordinates": [100.4410953, 5.4264899]}, "properties": {"name": "Kampung Bukit Jelutong", "place": "hamlet", "osm_id": 4622276554}}, {"type": "Feature", "geometry": {"type": "Point", "coordinates": [100.4282484, 5.4820277]}, "properties": {"name": "Kampung Telor", "place": "hamlet", "osm_id": 4623676622}}, {"type": "Feature", "geometry": {"type": "Point", "coordinates": [100.4327899, 5.4695579]}, "properties": {"name": "Kampung Tobiar", "place": "hamlet", "osm_id": 4623676634}}, {"type": "Feature", "geometry": {"type": "Point", "coordinates": [100.4334188, 5.4626677]}, "properties": {"name": "Guar Kepayang", "place": "hamlet", "osm_id": 4623676656}}, {"type": "Feature", "geometry": {"type": "Point", "coordinates": [100.5691052, 5.5406203]}, "properties": {"name": "Kampung Olak Madu", "place": "village", "osm_id": 4633876667}}, {"type": "Feature", "geometry": {"type": "Point", "coordinates": [100.4921362, 5.411597]}, "properties": {"name": "Kampung Mengkuang Titi", "place": "hamlet", "osm_id": 4643402391}}, {"type": "Feature", "geometry": {"type": "Point", "coordinates": [100.2136408, 5.3031983]}, "properties": {"name": "Hakka Village", "place": "hamlet", "osm_id": 4665268095}}, {"type": "Feature", "geometry": {"type": "Point", "coordinates": [100.22732, 5.295291]}, "properties": {"name": "Kampung Masjid", "place": "hamlet", "osm_id": 4678263091}}, {"type": "Feature", "geometry": {"type": "Point", "coordinates": [100.22308, 5.2869876]}, "properties": {"name": "Kampung Nelayan", "place": "hamlet", "osm_id": 4678263492}}, {"type": "Feature", "geometry": {"type": "Point", "coordinates": [100.2215674, 5.2905761]}, "properties": {"name": "Kampung Suluk", "place": "hamlet", "osm_id": 4678263493}}, {"type": "Feature", "geometry": {"type": "Point", "coordinates": [100.2422242, 5.2842225]}, "properties": {"name": "Sungai Batu", "place": "neighbourhood", "osm_id": 4678301391}}, {"type": "Feature", "geometry": {"type": "Point", "coordinates": [100.3381274, 5.4114954]}, "properties": {"name": "Lee Jetty", "place": "neighbourhood", "osm_id": 4699488091}}, {"type": "Feature", "geometry": {"type": "Point", "coordinates": [100.2269759, 5.332831]}, "properties": {"name": "Pondok Upih", "place": "village", "osm_id": 4700704593}}, {"type": "Feature", "geometry": {"type": "Point", "coordinates": [100.2022462, 5.3927973]}, "properties": {"name": "Kuala Sungai Pinang", "place": "suburb", "osm_id": 4700733189}}, {"type": "Feature", "geometry": {"type": "Point", "coordinates": [100.217132, 5.3337282]}, "properties": {"name": "Pekan Genting", "place": "suburb", "osm_id": 4701650590}}, {"type": "Feature", "geometry": {"type": "Point", "coordinates": [100.5352432, 5.5530286]}, "properties": {"name": "Terat Batu", "place": "hamlet", "osm_id": 4794998223}}, {"type": "Feature", "geometry": {"type": "Point", "coordinates": [100.4926628, 5.2398798]}, "properties": {"name": "Valdor", "place": "village", "osm_id": 4795003821}}, {"type": "Feature", "geometry": {"type": "Point", "coordinates": [100.3801895, 5.4399012]}, "properties": {"name": "Taman Intan", "place": "neighbourhood", "osm_id": 4802012249}}, {"type": "Feature", "geometry": {"type": "Point", "coordinates": [100.382116, 5.4724383]}, "properties": {"name": "Taman Wira", "place": "neighbourhood", "osm_id": 4803947481}}, {"type": "Feature", "geometry": {"type": "Point", "coordinates": [100.4070666, 5.5132157]}, "properties": {"name": "Permatang Tok Loba", "place": "hamlet", "osm_id": 4806220528}}, {"type": "Feature", "geometry": {"type": "Point", "coordinates": [100.4163025, 5.5155105]}, "properties": {"name": "Permatang Manggis", "place": "hamlet", "osm_id": 4806220529}}, {"type": "Feature", "geometry": {"type": "Point", "coordinates": [100.4022535, 5.5156532]}, "properties": {"name": "Permatang Sintok", "place": "village", "osm_id": 4806220559}}, {"type": "Feature", "geometry": {"type": "Point", "coordinates": [100.3830957, 5.4929291]}, "properties": {"name": "Taman Air Tawar Indah", "place": "neighbourhood", "osm_id": 4806220609}}, {"type": "Feature", "geometry": {"type": "Point", "coordinates": [100.4425398, 5.516909]}, "properties": {"name": "Bertam", "place": "suburb", "osm_id": 4806910473}}, {"type": "Feature", "geometry": {"type": "Point", "coordinates": [100.3924807, 5.5277921]}, "properties": {"name": "Permatang Rambai", "place": "hamlet", "osm_id": 4814652761}}, {"type": "Feature", "geometry": {"type": "Point", "coordinates": [100.2812662, 5.2859949]}, "properties": {"name": "Batu Maung", "place": "suburb", "osm_id": 4851165510}}, {"type": "Feature", "geometry": {"type": "Point", "coordinates": [100.4523398, 5.3045515]}, "properties": {"name": "Bukit Minyak", "place": "suburb", "osm_id": 4852843621}}, {"type": "Feature", "geometry": {"type": "Point", "coordinates": [100.3833495, 5.4817602]}, "properties": {"name": "Teluk Air Tawar", "place": "suburb", "osm_id": 4852891621}}, {"type": "Feature", "geometry": {"type": "Point", "coordinates": [100.2230059, 5.3599318]}, "properties": {"name": "Titi Teras", "place": "village", "osm_id": 4926550321}}, {"type": "Feature", "geometry": {"type": "Point", "coordinates": [100.3741113, 5.4133154]}, "properties": {"name": "Bagan Luar", "place": "neighbourhood", "osm_id": 4932875997}}, {"type": "Feature", "geometry": {"type": "Point", "coordinates": [100.3796, 5.490236]}, "properties": {"name": "Bagan Belat", "place": "hamlet", "osm_id": 4934154321}}, {"type": "Feature", "geometry": {"type": "Point", "coordinates": [100.5532372, 5.4322429]}, "properties": {"name": "Kampung Siam", "place": "hamlet", "osm_id": 4959482538}}, {"type": "Feature", "geometry": {"type": "Point", "coordinates": [100.5486238, 5.5232138]}, "properties": {"name": "Kampung Sentosa", "place": "village", "osm_id": 4965417723}}, {"type": "Feature", "geometry": {"type": "Point", "coordinates": [100.4766471, 5.212999]}, "properties": {"name": "Kampung Bagan Buaya", "place": "hamlet", "osm_id": 4974911321}}, {"type": "Feature", "geometry": {"type": "Point", "coordinates": [100.5464995, 5.4422292]}, "properties": {"name": "Taman Makmur", "place": "neighbourhood", "osm_id": 4977236867}}, {"type": "Feature", "geometry": {"type": "Point", "coordinates": [100.5159984, 5.1246554]}, "properties": {"name": "Parit Nibong", "place": "hamlet", "osm_id": 5006442822}}, {"type": "Feature", "geometry": {"type": "Point", "coordinates": [100.5683112, 5.3851394]}, "properties": {"name": "Kampung Padang Kulim", "place": "hamlet", "osm_id": 5008553333}}, {"type": "Feature", "geometry": {"type": "Point", "coordinates": [100.5780609, 5.3776751]}, "properties": {"name": "Sungai Ular", "place": "suburb", "osm_id": 5029849321}}, {"type": "Feature", "geometry": {"type": "Point", "coordinates": [100.5711865, 5.3930223]}, "properties": {"name": "Kulim Techno City Fasa 1", "place": "neighbourhood", "osm_id": 5041397352}}, {"type": "Feature", "geometry": {"type": "Point", "coordinates": [100.5694484, 5.4429876]}, "properties": {"name": "Kampung Paya Serdang", "place": "hamlet", "osm_id": 5041454188}}, {"type": "Feature", "geometry": {"type": "Point", "coordinates": [100.5440855, 5.5379507]}, "properties": {"name": "Kampong Guar Lobak", "place": "village", "osm_id": 5041454189}}, {"type": "Feature", "geometry": {"type": "Point", "coordinates": [100.2874505, 5.2776107]}, "properties": {"name": "Teluk Tempoyak", "place": "hamlet", "osm_id": 5052894322}}, {"type": "Feature", "geometry": {"type": "Point", "coordinates": [100.3157405, 5.3641179]}, "properties": {"name": "The LIGHT Waterfront", "place": "neighbourhood", "osm_id": 5065431567}}, {"type": "Feature", "geometry": {"type": "Point", "coordinates": [100.5633285, 5.4190009]}, "properties": {"name": "Taman Perak Indah", "place": "neighbourhood", "osm_id": 5153018829}}, {"type": "Feature", "geometry": {"type": "Point", "coordinates": [100.2725689, 5.3030128]}, "properties": {"name": "Sungai Tiram", "place": "suburb", "osm_id": 5170620608}}, {"type": "Feature", "geometry": {"type": "Point", "coordinates": [100.3388158, 5.4119025]}, "properties": {"name": "Tan Jetty", "place": "neighbourhood", "osm_id": 5340034249}}, {"type": "Feature", "geometry": {"type": "Point", "coordinates": [100.487492, 5.5890204]}, "properties": {"name": "Kampung Pulau Tengah", "place": "hamlet", "osm_id": 5430784714}}, {"type": "Feature", "geometry": {"type": "Point", "coordinates": [100.4194097, 5.1239702]}, "properties": {"name": "Sungai Bakau", "place": "village", "osm_id": 5719591122}}, {"type": "Feature", "geometry": {"type": "Point", "coordinates": [100.4304555, 5.2625962]}, "properties": {"name": "Batu Kawan", "place": "town", "osm_id": 5746480592}}, {"type": "Feature", "geometry": {"type": "Point", "coordinates": [100.4611525, 5.1505852]}, "properties": {"name": "Kampung Tanjong Berembang", "place": "hamlet", "osm_id": 5778641586}}, {"type": "Feature", "geometry": {"type": "Point", "coordinates": [100.4031229, 5.5273074]}, "properties": {"name": "Kampung Permatang Kuang", "place": "hamlet", "osm_id": 5795471615}}, {"type": "Feature", "geometry": {"type": "Point", "coordinates": [100.5019286, 5.523251]}, "properties": {"name": "Pokok Jenerih", "place": "hamlet", "osm_id": 5825085951}}, {"type": "Feature", "geometry": {"type": "Point", "coordinates": [100.5113164, 5.3189384]}, "properties": {"name": "Kampung Berangan Sembilan", "place": "hamlet", "osm_id": 5865580908}}, {"type": "Feature", "geometry": {"type": "Point", "coordinates": [100.5458987, 5.3664225]}, "properties": {"name": "Taman Seri Akasia", "place": "neighbourhood", "osm_id": 5883862286}}, {"type": "Feature", "geometry": {"type": "Point", "coordinates": [100.5281478, 5.3569236]}, "properties": {"name": "Taman Cengal", "place": "neighbourhood", "osm_id": 5884528593}}, {"type": "Feature", "geometry": {"type": "Point", "coordinates": [100.5284589, 5.3550916]}, "properties": {"name": "Taman Cengal Indah", "place": "neighbourhood", "osm_id": 5884528604}}, {"type": "Feature", "geometry": {"type": "Point", "coordinates": [100.5329999, 5.360462]}, "properties": {"name": "Taman Kempas Indah 2", "place": "neighbourhood", "osm_id": 5885176264}}, {"type": "Feature", "geometry": {"type": "Point", "coordinates": [100.5317125, 5.3593137]}, "properties": {"name": "Taman Kempas Indah 1", "place": "neighbourhood", "osm_id": 5885176280}}, {"type": "Feature", "geometry": {"type": "Point", "coordinates": [100.5320585, 5.3652154]}, "properties": {"name": "Taman Petaling", "place": "neighbourhood", "osm_id": 5885297248}}, {"type": "Feature", "geometry": {"type": "Point", "coordinates": [100.5376804, 5.3585259]}, "properties": {"name": "Taman Bersatu \u2161", "place": "neighbourhood", "osm_id": 5886201875}}, {"type": "Feature", "geometry": {"type": "Point", "coordinates": [100.459042, 5.2885104]}, "properties": {"name": "Taman Lembah Indah", "place": "neighbourhood", "osm_id": 5907599377}}, {"type": "Feature", "geometry": {"type": "Point", "coordinates": [100.5795443, 5.373913]}, "properties": {"name": "Kampung Paya Tok Betok", "place": "hamlet", "osm_id": 5909304002}}, {"type": "Feature", "geometry": {"type": "Point", "coordinates": [100.5455821, 5.3699026]}, "properties": {"name": "Bandar Putra Kulim", "place": "neighbourhood", "osm_id": 5910090028}}, {"type": "Feature", "geometry": {"type": "Point", "coordinates": [100.5131122, 5.4380395]}, "properties": {"name": "Ara Kuda", "place": "suburb", "osm_id": 5924095808}}, {"type": "Feature", "geometry": {"type": "Point", "coordinates": [100.56189, 5.118269]}, "properties": {"name": "Permatang Kerat Telunjuk", "place": "village", "osm_id": 5926162729}}, {"type": "Feature", "geometry": {"type": "Point", "coordinates": [100.5746734, 5.1307876]}, "properties": {"name": "Kampung Permatang Simpor", "place": "village", "osm_id": 5926177325}}, {"type": "Feature", "geometry": {"type": "Point", "coordinates": [100.4758889, 5.3876479]}, "properties": {"name": "Bukit Noning", "place": "neighbourhood", "osm_id": 5927905183}}, {"type": "Feature", "geometry": {"type": "Point", "coordinates": [100.4774265, 5.3805873]}, "properties": {"name": "Taman Mutiara Jaya", "place": "neighbourhood", "osm_id": 5936140087}}, {"type": "Feature", "geometry": {"type": "Point", "coordinates": [100.4868653, 5.4268884]}, "properties": {"name": "Kampung Kuala Mengkuang", "place": "hamlet", "osm_id": 5937348648}}, {"type": "Feature", "geometry": {"type": "Point", "coordinates": [100.5111373, 5.4247511]}, "properties": {"name": "Kampung Telok Wang", "place": "hamlet", "osm_id": 5937349694}}, {"type": "Feature", "geometry": {"type": "Point", "coordinates": [100.5113452, 5.4334938]}, "properties": {"name": "Kampung Tun Sardon", "place": "hamlet", "osm_id": 5937349720}}, {"type": "Feature", "geometry": {"type": "Point", "coordinates": [100.4373171, 5.41781]}, "properties": {"name": "Permatang Pasir", "place": "village", "osm_id": 5938476627}}, {"type": "Feature", "geometry": {"type": "Point", "coordinates": [100.4718583, 5.4361221]}, "properties": {"name": "Bukit Berangan", "place": "hamlet", "osm_id": 5939103900}}, {"type": "Feature", "geometry": {"type": "Point", "coordinates": [100.42581, 5.4096647]}, "properties": {"name": "Kampung Bukit Pelanduk", "place": "hamlet", "osm_id": 5939222465}}, {"type": "Feature", "geometry": {"type": "Point", "coordinates": [100.5041744, 5.4692493]}, "properties": {"name": "Paya Tok Akil", "place": "hamlet", "osm_id": 5939502307}}, {"type": "Feature", "geometry": {"type": "Point", "coordinates": [100.3878397, 5.4384472]}, "properties": {"name": "Taman Seri Ara", "place": "neighbourhood", "osm_id": 5939560898}}, {"type": "Feature", "geometry": {"type": "Point", "coordinates": [100.454837, 5.3589642]}, "properties": {"name": "Kampung Sungai Rambai", "place": "hamlet", "osm_id": 5940416057}}, {"type": "Feature", "geometry": {"type": "Point", "coordinates": [100.4608436, 5.3696247]}, "properties": {"name": "Kampung Cross Street", "place": "hamlet", "osm_id": 5951661049}}, {"type": "Feature", "geometry": {"type": "Point", "coordinates": [100.4548787, 5.3662855]}, "properties": {"name": "Taman Tan Sai Gin", "place": "neighbourhood", "osm_id": 5953027109}}, {"type": "Feature", "geometry": {"type": "Point", "coordinates": [100.5803857, 5.3870981]}, "properties": {"name": "Kulim Utama Fasa 2", "place": "neighbourhood", "osm_id": 5971593106}}, {"type": "Feature", "geometry": {"type": "Point", "coordinates": [100.3778683, 5.5278429]}, "properties": {"name": "Taman Penaga Permai", "place": "neighbourhood", "osm_id": 5980727871}}, {"type": "Feature", "geometry": {"type": "Point", "coordinates": [100.40032, 5.1092528]}, "properties": {"name": "Bagan Tiang", "place": "village", "osm_id": 5981238902}}, {"type": "Feature", "geometry": {"type": "Point", "coordinates": [100.598651, 5.2602299]}, "properties": {"name": "Kampung Badlishah", "place": "hamlet", "osm_id": 5996680753}}, {"type": "Feature", "geometry": {"type": "Point", "coordinates": [100.3958774, 5.4483771]}, "properties": {"name": "Sungai Puyu", "place": "suburb", "osm_id": 6017431057}}, {"type": "Feature", "geometry": {"type": "Point", "coordinates": [100.3986369, 5.4480024]}, "properties": {"name": "Taman Seri Pinang", "place": "neighbourhood", "osm_id": 6017431058}}, {"type": "Feature", "geometry": {"type": "Point", "coordinates": [100.5550523, 5.2320899]}, "properties": {"name": "Relau", "place": "village", "osm_id": 6017481933}}, {"type": "Feature", "geometry": {"type": "Point", "coordinates": [100.3121198, 5.3464491]}, "properties": {"name": "Bayan Mutiara", "place": "neighbourhood", "osm_id": 6055050422}}, {"type": "Feature", "geometry": {"type": "Point", "coordinates": [100.4007655, 5.4835833]}, "properties": {"name": "Permatang Tok Gelam", "place": "hamlet", "osm_id": 6058350353}}, {"type": "Feature", "geometry": {"type": "Point", "coordinates": [100.4026599, 5.4886733]}, "properties": {"name": "Kampung Paya", "place": "hamlet", "osm_id": 6058368380}}, {"type": "Feature", "geometry": {"type": "Point", "coordinates": [100.4032481, 5.4793908]}, "properties": {"name": "Gelung Bubu", "place": "hamlet", "osm_id": 6058368381}}, {"type": "Feature", "geometry": {"type": "Point", "coordinates": [100.4009118, 5.4593044]}, "properties": {"name": "Permatang Tok Jaya", "place": "village", "osm_id": 6058383993}}, {"type": "Feature", "geometry": {"type": "Point", "coordinates": [100.4014405, 5.4764158]}, "properties": {"name": "Pekan Darat", "place": "hamlet", "osm_id": 6058383994}}, {"type": "Feature", "geometry": {"type": "Point", "coordinates": [100.5151709, 5.2890327]}, "properties": {"name": "Kampung Seberang Tasek", "place": "hamlet", "osm_id": 6110352721}}, {"type": "Feature", "geometry": {"type": "Point", "coordinates": [100.518406, 5.278853]}, "properties": {"name": "Kampung Tasek Chempedak", "place": "hamlet", "osm_id": 6110352738}}, {"type": "Feature", "geometry": {"type": "Point", "coordinates": [100.4920949, 5.2252382]}, "properties": {"name": "Kampung Masjid Baru", "place": "hamlet", "osm_id": 6110352925}}, {"type": "Feature", "geometry": {"type": "Point", "coordinates": [100.299335, 5.3893167]}, "properties": {"name": "Island Park", "place": "neighbourhood", "osm_id": 6116324383}}, {"type": "Feature", "geometry": {"type": "Point", "coordinates": [100.3967018, 5.4304408]}, "properties": {"name": "Taman Mesra Jaya", "place": "neighbourhood", "osm_id": 6116335330}}, {"type": "Feature", "geometry": {"type": "Point", "coordinates": [100.4642467, 5.3925751]}, "properties": {"name": "Sungai Semambu", "place": "hamlet", "osm_id": 6142851471}}, {"type": "Feature", "geometry": {"type": "Point", "coordinates": [100.3814456, 5.4247369]}, "properties": {"name": "Taman Anggerik", "place": "neighbourhood", "osm_id": 6216291520}}, {"type": "Feature", "geometry": {"type": "Point", "coordinates": [100.5526838, 5.4421681]}, "properties": {"name": "Taman Sepakat", "place": "neighbourhood", "osm_id": 6262439217}}, {"type": "Feature", "geometry": {"type": "Point", "coordinates": [100.5397684, 5.4427194]}, "properties": {"name": "Taman Desa Sentosa", "place": "neighbourhood", "osm_id": 6262439218}}, {"type": "Feature", "geometry": {"type": "Point", "coordinates": [100.5522007, 5.5083903]}, "properties": {"name": "Taman Jaya", "place": "neighbourhood", "osm_id": 6262439261}}, {"type": "Feature", "geometry": {"type": "Point", "coordinates": [100.5378696, 5.5188716]}, "properties": {"name": "Taman Serai Wangi Fasa 3", "place": "neighbourhood", "osm_id": 6262439493}}, {"type": "Feature", "geometry": {"type": "Point", "coordinates": [100.466997, 5.3716571]}, "properties": {"name": "Taman Serumpun", "place": "neighbourhood", "osm_id": 6387577315}}, {"type": "Feature", "geometry": {"type": "Point", "coordinates": [100.4367596, 5.5361833]}, "properties": {"name": "Permatang Tinggi 'B'", "place": "hamlet", "osm_id": 6391380205}}, {"type": "Feature", "geometry": {"type": "Point", "coordinates": [100.4375374, 5.5512482]}, "properties": {"name": "Permatang Tinggi Bakar Bata", "place": "hamlet", "osm_id": 6391380206}}, {"type": "Feature", "geometry": {"type": "Point", "coordinates": [100.3897642, 5.4391134]}, "properties": {"name": "Taman Teratai", "place": "neighbourhood", "osm_id": 6412224823}}, {"type": "Feature", "geometry": {"type": "Point", "coordinates": [100.4908097, 5.1396943]}, "properties": {"name": "Taman Pekaka", "place": "neighbourhood", "osm_id": 6467430203}}, {"type": "Feature", "geometry": {"type": "Point", "coordinates": [100.4756406, 5.4075422]}, "properties": {"name": "Kubang Ulu", "place": "hamlet", "osm_id": 6467533396}}, {"type": "Feature", "geometry": {"type": "Point", "coordinates": [100.5343732, 5.5201275]}, "properties": {"name": "Taman Serai Wangi Fasa 4", "place": "neighbourhood", "osm_id": 6564762861}}, {"type": "Feature", "geometry": {"type": "Point", "coordinates": [100.2580128, 5.2874982]}, "properties": {"name": "Kampung Seronok", "place": "hamlet", "osm_id": 6701011565}}, {"type": "Feature", "geometry": {"type": "Point", "coordinates": [100.2569154, 5.2828861]}, "properties": {"name": "Kampung Binjal", "place": "hamlet", "osm_id": 6701011566}}, {"type": "Feature", "geometry": {"type": "Point", "coordinates": [100.5763605, 5.504805]}, "properties": {"name": "Taman Bunga Raya", "place": "neighbourhood", "osm_id": 6955106147}}, {"type": "Feature", "geometry": {"type": "Point", "coordinates": [100.5449067, 5.3558473]}, "properties": {"name": "Taman Harmoni", "place": "neighbourhood", "osm_id": 7019940254}}, {"type": "Feature", "geometry": {"type": "Point", "coordinates": [100.5466797, 5.360194]}, "properties": {"name": "Taman Sulaiman", "place": "neighbourhood", "osm_id": 7019940377}}, {"type": "Feature", "geometry": {"type": "Point", "coordinates": [100.5438888, 5.3572342]}, "properties": {"name": "Taman Berlian", "place": "neighbourhood", "osm_id": 7019940378}}, {"type": "Feature", "geometry": {"type": "Point", "coordinates": [100.5671104, 5.371528]}, "properties": {"name": "Taman Kota Kenari", "place": "neighbourhood", "osm_id": 7020338087}}, {"type": "Feature", "geometry": {"type": "Point", "coordinates": [100.5734347, 5.3668797]}, "properties": {"name": "Taman Kenari", "place": "neighbourhood", "osm_id": 7020338088}}, {"type": "Feature", "geometry": {"type": "Point", "coordinates": [100.578717, 5.3963499]}, "properties": {"name": "Kulim Perdana", "place": "neighbourhood", "osm_id": 7020338090}}, {"type": "Feature", "geometry": {"type": "Point", "coordinates": [100.5892184, 5.415735]}, "properties": {"name": "Fasa 2", "place": "neighbourhood", "osm_id": 7020338114}}, {"type": "Feature", "geometry": {"type": "Point", "coordinates": [100.5868772, 5.420832]}, "properties": {"name": "Fasa 1", "place": "neighbourhood", "osm_id": 7020338115}}, {"type": "Feature", "geometry": {"type": "Point", "coordinates": [100.5949069, 5.4170084]}, "properties": {"name": "SMI Park", "place": "neighbourhood", "osm_id": 7020338162}}, {"type": "Feature", "geometry": {"type": "Point", "coordinates": [100.4684212, 5.2661427]}, "properties": {"name": "Taman Merak Jaya", "place": "neighbourhood", "osm_id": 7052477338}}, {"type": "Feature", "geometry": {"type": "Point", "coordinates": [100.4965117, 5.289671]}, "properties": {"name": "Kampung Hutan Petai", "place": "hamlet", "osm_id": 7052764175}}, {"type": "Feature", "geometry": {"type": "Point", "coordinates": [100.49345, 5.2173261]}, "properties": {"name": "Kampung Pulau", "place": "hamlet", "osm_id": 7054366127}}, {"type": "Feature", "geometry": {"type": "Point", "coordinates": [100.4776787, 5.1625837]}, "properties": {"name": "Kampung Haji Omar", "place": "neighbourhood", "osm_id": 7054441058}}, {"type": "Feature", "geometry": {"type": "Point", "coordinates": [100.4758767, 5.1583525]}, "properties": {"name": "Kampung Haji Saad", "place": "hamlet", "osm_id": 7054441073}}, {"type": "Feature", "geometry": {"type": "Point", "coordinates": [100.482759, 5.1325397]}, "properties": {"name": "Permatang Tok Mahat", "place": "neighbourhood", "osm_id": 7054441616}}, {"type": "Feature", "geometry": {"type": "Point", "coordinates": [100.5001601, 5.2065586]}, "properties": {"name": "Kampung Sethu", "place": "hamlet", "osm_id": 7055174900}}, {"type": "Feature", "geometry": {"type": "Point", "coordinates": [100.4611235, 5.1294769]}, "properties": {"name": "Kampung Batu Dua", "place": "hamlet", "osm_id": 7055267681}}, {"type": "Feature", "geometry": {"type": "Point", "coordinates": [100.443933, 5.1269381]}, "properties": {"name": "Kampung Batu 3", "place": "hamlet", "osm_id": 7055269103}}, {"type": "Feature", "geometry": {"type": "Point", "coordinates": [100.4363817, 5.1314624]}, "properties": {"name": "Kampung Batas Pinang", "place": "hamlet", "osm_id": 7055269105}}, {"type": "Feature", "geometry": {"type": "Point", "coordinates": [100.4193128, 5.1322329]}, "properties": {"name": "Kampung Sungai Tongkang", "place": "hamlet", "osm_id": 7055269117}}, {"type": "Feature", "geometry": {"type": "Point", "coordinates": [100.4199353, 5.1391662]}, "properties": {"name": "Kampung Sungai Air Itam", "place": "hamlet", "osm_id": 7055269130}}, {"type": "Feature", "geometry": {"type": "Point", "coordinates": [100.4898865, 5.1221087]}, "properties": {"name": "Taman Pekan Baru", "place": "neighbourhood", "osm_id": 7055270051}}, {"type": "Feature", "geometry": {"type": "Point", "coordinates": [100.4884536, 5.1237075]}, "properties": {"name": "Pekan Baru", "place": "suburb", "osm_id": 7055270052}}, {"type": "Feature", "geometry": {"type": "Point", "coordinates": [100.4919523, 5.1294565]}, "properties": {"name": "Pekan Lama", "place": "suburb", "osm_id": 7055270053}}, {"type": "Feature", "geometry": {"type": "Point", "coordinates": [100.4714057, 5.1524606]}, "properties": {"name": "Kampung Tok Keramat", "place": "hamlet", "osm_id": 7099337556}}, {"type": "Feature", "geometry": {"type": "Point", "coordinates": [100.4771757, 5.1600435]}, "properties": {"name": "Kampung Haji Osman", "place": "hamlet", "osm_id": 7099337557}}, {"type": "Feature", "geometry": {"type": "Point", "coordinates": [100.5096402, 5.2847291]}, "properties": {"name": "Kampung Padang Lalang", "place": "hamlet", "osm_id": 7099779210}}, {"type": "Feature", "geometry": {"type": "Point", "coordinates": [100.5159803, 5.2866829]}, "properties": {"name": "Kampung Haji Abdullah", "place": "hamlet", "osm_id": 7099779229}}, {"type": "Feature", "geometry": {"type": "Point", "coordinates": [100.5205592, 5.2816076]}, "properties": {"name": "Kampung Tasek", "place": "hamlet", "osm_id": 7099779827}}, {"type": "Feature", "geometry": {"type": "Point", "coordinates": [100.4332831, 5.3166084]}, "properties": {"name": "Taman Mengkudu", "place": "neighbourhood", "osm_id": 7104493426}}, {"type": "Feature", "geometry": {"type": "Point", "coordinates": [100.4351184, 5.3198973]}, "properties": {"name": "Taman Seri Delima", "place": "neighbourhood", "osm_id": 7104493427}}, {"type": "Feature", "geometry": {"type": "Point", "coordinates": [100.4317921, 5.3248566]}, "properties": {"name": "Kampung Tok Kangar", "place": "hamlet", "osm_id": 7104493428}}, {"type": "Feature", "geometry": {"type": "Point", "coordinates": [100.5093162, 5.1920884]}, "properties": {"name": "Taman Halaman Indah", "place": "neighbourhood", "osm_id": 7112048898}}, {"type": "Feature", "geometry": {"type": "Point", "coordinates": [100.2787216, 5.3962494]}, "properties": {"name": "Kampung Lembah Ria", "place": "neighbourhood", "osm_id": 7146791550}}, {"type": "Feature", "geometry": {"type": "Point", "coordinates": [100.5933791, 5.1386043]}, "properties": {"name": "Taman Kelisa Emas", "place": "neighbourhood", "osm_id": 7160275225}}, {"type": "Feature", "geometry": {"type": "Point", "coordinates": [100.4836867, 5.4756386]}, "properties": {"name": "Pokok Tampang", "place": "village", "osm_id": 7161486957}}, {"type": "Feature", "geometry": {"type": "Point", "coordinates": [100.4771437, 5.1651692]}, "properties": {"name": "Kampung Pengkalan", "place": "hamlet", "osm_id": 7174772431}}, {"type": "Feature", "geometry": {"type": "Point", "coordinates": [100.4722421, 5.3884084]}, "properties": {"name": "Noning Residences", "place": "neighbourhood", "osm_id": 7175191883}}, {"type": "Feature", "geometry": {"type": "Point", "coordinates": [100.2821548, 5.4077068]}, "properties": {"name": "Hye Keat Estate", "place": "neighbourhood", "osm_id": 7175322771}}, {"type": "Feature", "geometry": {"type": "Point", "coordinates": [100.4201934, 5.5366581]}, "properties": {"name": "Kampung Padang", "place": "hamlet", "osm_id": 7176677476}}, {"type": "Feature", "geometry": {"type": "Point", "coordinates": [100.383565, 5.5319657]}, "properties": {"name": "Kampung Baru", "place": "hamlet", "osm_id": 7176702812}}, {"type": "Feature", "geometry": {"type": "Point", "coordinates": [100.3861447, 5.5383843]}, "properties": {"name": "Padang Tembusu", "place": "hamlet", "osm_id": 7176702897}}, {"type": "Feature", "geometry": {"type": "Point", "coordinates": [100.3791783, 5.5407287]}, "properties": {"name": "Bakar Kapur", "place": "hamlet", "osm_id": 7176702909}}, {"type": "Feature", "geometry": {"type": "Point", "coordinates": [100.4028137, 5.5481413]}, "properties": {"name": "Kampung Guar Tuan Syed", "place": "hamlet", "osm_id": 7176702916}}, {"type": "Feature", "geometry": {"type": "Point", "coordinates": [100.364127, 5.555989]}, "properties": {"name": "Kampung Permatang Rawa Tepi Laut", "place": "hamlet", "osm_id": 7176749364}}, {"type": "Feature", "geometry": {"type": "Point", "coordinates": [100.3684541, 5.563099]}, "properties": {"name": "Kampung Permatang Keriang", "place": "hamlet", "osm_id": 7176749366}}, {"type": "Feature", "geometry": {"type": "Point", "coordinates": [100.3641717, 5.563887]}, "properties": {"name": "Kampung Permatang Rawa", "place": "hamlet", "osm_id": 7176749368}}, {"type": "Feature", "geometry": {"type": "Point", "coordinates": [100.3595653, 5.5679331]}, "properties": {"name": "Kampung Bakau Tua", "place": "hamlet", "osm_id": 7176749369}}, {"type": "Feature", "geometry": {"type": "Point", "coordinates": [100.3648379, 5.5728477]}, "properties": {"name": "Pulau Mertajam", "place": "hamlet", "osm_id": 7176749372}}, {"type": "Feature", "geometry": {"type": "Point", "coordinates": [100.3745853, 5.5786681]}, "properties": {"name": "Permatang Bendahari", "place": "hamlet", "osm_id": 7176762788}}, {"type": "Feature", "geometry": {"type": "Point", "coordinates": [100.3728974, 5.5693499]}, "properties": {"name": "Sungai Kedak", "place": "hamlet", "osm_id": 7176762795}}, {"type": "Feature", "geometry": {"type": "Point", "coordinates": [100.3816669, 5.5227204]}, "properties": {"name": "Penaga \u2161", "place": "neighbourhood", "osm_id": 7176762815}}, {"type": "Feature", "geometry": {"type": "Point", "coordinates": [100.3829438, 5.516466]}, "properties": {"name": "Lahar Tabut", "place": "hamlet", "osm_id": 7176762819}}, {"type": "Feature", "geometry": {"type": "Point", "coordinates": [100.3834871, 5.506622]}, "properties": {"name": "Permatang Berah", "place": "hamlet", "osm_id": 7176762820}}, {"type": "Feature", "geometry": {"type": "Point", "coordinates": [100.4219465, 5.5165986]}, "properties": {"name": "Taman Sepakat", "place": "neighbourhood", "osm_id": 7176805767}}, {"type": "Feature", "geometry": {"type": "Point", "coordinates": [100.491434, 5.550358]}, "properties": {"name": "Permatang Langsat", "place": "hamlet", "osm_id": 7176817709}}, {"type": "Feature", "geometry": {"type": "Point", "coordinates": [100.479179, 5.5509426]}, "properties": {"name": "Lahar Tiang", "place": "hamlet", "osm_id": 7180453082}}, {"type": "Feature", "geometry": {"type": "Point", "coordinates": [100.4567872, 5.5381992]}, "properties": {"name": "Paya Keladi Hujung", "place": "hamlet", "osm_id": 7180482026}}, {"type": "Feature", "geometry": {"type": "Point", "coordinates": [100.4521763, 5.5376585]}, "properties": {"name": "Paya Keladi Tengah", "place": "hamlet", "osm_id": 7180482028}}, {"type": "Feature", "geometry": {"type": "Point", "coordinates": [100.4387346, 5.5406149]}, "properties": {"name": "Permatang Tinggi 'C'", "place": "hamlet", "osm_id": 7180485876}}, {"type": "Feature", "geometry": {"type": "Point", "coordinates": [100.5300942, 5.2090342]}, "properties": {"name": "Sungai Duri", "place": "village", "osm_id": 7180807744}}, {"type": "Feature", "geometry": {"type": "Point", "coordinates": [100.5241512, 5.2880526]}, "properties": {"name": "Kampung Balik Bukit", "place": "hamlet", "osm_id": 7215890505}}, {"type": "Feature", "geometry": {"type": "Point", "coordinates": [100.462658, 5.1029099]}, "properties": {"name": "Titi Serong", "place": "village", "osm_id": 7354598481}}, {"type": "Feature", "geometry": {"type": "Point", "coordinates": [100.3692859, 5.586521]}, "properties": {"name": "Kampong Permatang Nyior", "place": "hamlet", "osm_id": 7368137667}}, {"type": "Feature", "geometry": {"type": "Point", "coordinates": [100.3642863, 5.5866024]}, "properties": {"name": "Kampung Permatang Kelompang", "place": "hamlet", "osm_id": 7368137668}}, {"type": "Feature", "geometry": {"type": "Point", "coordinates": [100.3397495, 5.5864996]}, "properties": {"name": "Kampong Sungai Muda", "place": "hamlet", "osm_id": 7368206953}}, {"type": "Feature", "geometry": {"type": "Point", "coordinates": [100.3614217, 5.5813208]}, "properties": {"name": "Kampong Haji Kudong", "place": "village", "osm_id": 7368234943}}, {"type": "Feature", "geometry": {"type": "Point", "coordinates": [100.4283133, 5.5826716]}, "properties": {"name": "Kampung Permatang Merbau", "place": "hamlet", "osm_id": 7368290708}}, {"type": "Feature", "geometry": {"type": "Point", "coordinates": [100.4181209, 5.5778238]}, "properties": {"name": "Kampung Alor Bemban", "place": "neighbourhood", "osm_id": 7368311031}}, {"type": "Feature", "geometry": {"type": "Point", "coordinates": [100.4326236, 5.583056]}, "properties": {"name": "Kampung Padang", "place": "hamlet", "osm_id": 7368317296}}, {"type": "Feature", "geometry": {"type": "Point", "coordinates": [100.3402698, 5.5797191]}, "properties": {"name": "Kampung Hujung Tepi Sungai", "place": "hamlet", "osm_id": 7370500577}}, {"type": "Feature", "geometry": {"type": "Point", "coordinates": [100.3409779, 5.5939474]}, "properties": {"name": "Kampong Padang Salim", "place": "hamlet", "osm_id": 7370500578}}, {"type": "Feature", "geometry": {"type": "Point", "coordinates": [100.284463, 5.4647757]}, "properties": {"name": "Tanjong Bungah", "place": "suburb", "osm_id": 7394089584}}, {"type": "Feature", "geometry": {"type": "Point", "coordinates": [100.5102547, 5.3411542]}, "properties": {"name": "Kampung Pulau Pisang", "place": "hamlet", "osm_id": 7410454834}}, {"type": "Feature", "geometry": {"type": "Point", "coordinates": [100.4004022, 5.4503143]}, "properties": {"name": "Maklom", "place": "hamlet", "osm_id": 7440584430}}, {"type": "Feature", "geometry": {"type": "Point", "coordinates": [100.3864145, 5.4993937]}, "properties": {"name": "Titi Mukim", "place": "neighbourhood", "osm_id": 7440925046}}, {"type": "Feature", "geometry": {"type": "Point", "coordinates": [100.4168415, 5.5715557]}, "properties": {"name": "Kampung Permatang Pasir", "place": "village", "osm_id": 7504804441}}, {"type": "Feature", "geometry": {"type": "Point", "coordinates": [100.4176596, 5.5758376]}, "properties": {"name": "Kampung Sungai Korok", "place": "neighbourhood", "osm_id": 7504826110}}, {"type": "Feature", "geometry": {"type": "Point", "coordinates": [100.3890538, 5.5834244]}, "properties": {"name": "Kampung Alor Jawi", "place": "hamlet", "osm_id": 7505125153}}, {"type": "Feature", "geometry": {"type": "Point", "coordinates": [100.4098141, 5.5604664]}, "properties": {"name": "Kampung Pengkalan Bongor", "place": "hamlet", "osm_id": 7527840112}}, {"type": "Feature", "geometry": {"type": "Point", "coordinates": [100.4040127, 5.5573218]}, "properties": {"name": "Lahar Minyak", "place": "hamlet", "osm_id": 7527840113}}, {"type": "Feature", "geometry": {"type": "Point", "coordinates": [100.3969073, 5.557722]}, "properties": {"name": "Kampung Permatang Kabu", "place": "hamlet", "osm_id": 7527840114}}, {"type": "Feature", "geometry": {"type": "Point", "coordinates": [100.3908482, 5.5529274]}, "properties": {"name": "Guar Tuan Syed", "place": "hamlet", "osm_id": 7527840115}}, {"type": "Feature", "geometry": {"type": "Point", "coordinates": [100.3945309, 5.5551058]}, "properties": {"name": "Kampung Lembah", "place": "hamlet", "osm_id": 7527840116}}, {"type": "Feature", "geometry": {"type": "Point", "coordinates": [100.4249847, 5.5586751]}, "properties": {"name": "Kampung Guar Kepah", "place": "hamlet", "osm_id": 7527887937}}, {"type": "Feature", "geometry": {"type": "Point", "coordinates": [100.4107797, 5.5634883]}, "properties": {"name": "Taman Bongor Muda", "place": "neighbourhood", "osm_id": 7527887947}}, {"type": "Feature", "geometry": {"type": "Point", "coordinates": [100.4703632, 5.5879737]}, "properties": {"name": "Kampung Kepala Bukit", "place": "hamlet", "osm_id": 7528033738}}, {"type": "Feature", "geometry": {"type": "Point", "coordinates": [100.5149073, 5.3349002]}, "properties": {"name": "Kampung To' Konan", "place": "hamlet", "osm_id": 7555539156}}, {"type": "Feature", "geometry": {"type": "Point", "coordinates": [100.376184, 5.5224455]}, "properties": {"name": "Taman Bekah Indah", "place": "neighbourhood", "osm_id": 7560436233}}, {"type": "Feature", "geometry": {"type": "Point", "coordinates": [100.3773229, 5.5149804]}, "properties": {"name": "Kamung Kuala Bekah", "place": "hamlet", "osm_id": 7560436234}}, {"type": "Feature", "geometry": {"type": "Point", "coordinates": [100.4150755, 5.402082]}, "properties": {"name": "Permatang Tengah", "place": "hamlet", "osm_id": 7566319366}}, {"type": "Feature", "geometry": {"type": "Point", "coordinates": [100.4386747, 5.5921428]}, "properties": {"name": "Kampung Berapit", "place": "village", "osm_id": 7572769501}}, {"type": "Feature", "geometry": {"type": "Point", "coordinates": [100.3991076, 5.4915019]}, "properties": {"name": "Permatang Panjang", "place": "hamlet", "osm_id": 7578481609}}, {"type": "Feature", "geometry": {"type": "Point", "coordinates": [100.3962054, 5.4983974]}, "properties": {"name": "Permatang Binjai", "place": "hamlet", "osm_id": 7578481610}}, {"type": "Feature", "geometry": {"type": "Point", "coordinates": [100.4043307, 5.4740118]}, "properties": {"name": "Permatang Tok Bidan", "place": "hamlet", "osm_id": 7578578810}}, {"type": "Feature", "geometry": {"type": "Point", "coordinates": [100.4230703, 5.3158395]}, "properties": {"name": "Kampung Sekolah Juru", "place": "hamlet", "osm_id": 7598391366}}, {"type": "Feature", "geometry": {"type": "Point", "coordinates": [100.4129438, 5.3246935]}, "properties": {"name": "Sungai Sembilang", "place": "hamlet", "osm_id": 7598391379}}, {"type": "Feature", "geometry": {"type": "Point", "coordinates": [100.3793187, 5.43705]}, "properties": {"name": "Taman Seaview", "place": "neighbourhood", "osm_id": 7601261972}}, {"type": "Feature", "geometry": {"type": "Point", "coordinates": [100.3835913, 5.4472282]}, "properties": {"name": "Taman Kekaya", "place": "neighbourhood", "osm_id": 7601297721}}, {"type": "Feature", "geometry": {"type": "Point", "coordinates": [100.41714, 5.4540915]}, "properties": {"name": "Permatang Che Tak", "place": "hamlet", "osm_id": 7609642726}}, {"type": "Feature", "geometry": {"type": "Point", "coordinates": [100.4120583, 5.4491124]}, "properties": {"name": "Sungai Lokan", "place": "hamlet", "osm_id": 7609642729}}, {"type": "Feature", "geometry": {"type": "Point", "coordinates": [100.4060008, 5.450547]}, "properties": {"name": "Kampung Alor Merah", "place": "hamlet", "osm_id": 7609642736}}, {"type": "Feature", "geometry": {"type": "Point", "coordinates": [100.3813545, 5.4920654]}, "properties": {"name": "Pekan Baru", "place": "neighbourhood", "osm_id": 7612997083}}, {"type": "Feature", "geometry": {"type": "Point", "coordinates": [100.5234086, 5.5282152]}, "properties": {"name": "Kampung Baharu", "place": "hamlet", "osm_id": 7614249989}}, {"type": "Feature", "geometry": {"type": "Point", "coordinates": [100.5148891, 5.5342645]}, "properties": {"name": "Sungai Korok", "place": "hamlet", "osm_id": 7614250008}}, {"type": "Feature", "geometry": {"type": "Point", "coordinates": [100.5063327, 5.5463011]}, "properties": {"name": "Kampung Padang Beka", "place": "hamlet", "osm_id": 7614250009}}, {"type": "Feature", "geometry": {"type": "Point", "coordinates": [100.4833452, 5.4806825]}, "properties": {"name": "Lahar Tambun", "place": "hamlet", "osm_id": 7629197199}}, {"type": "Feature", "geometry": {"type": "Point", "coordinates": [100.4976536, 5.5183499]}, "properties": {"name": "Kampung Tasek", "place": "hamlet", "osm_id": 7633224359}}, {"type": "Feature", "geometry": {"type": "Point", "coordinates": [100.4999556, 5.2853635]}, "properties": {"name": "Kampung Kepala Gajah", "place": "hamlet", "osm_id": 7633388040}}, {"type": "Feature", "geometry": {"type": "Point", "coordinates": [100.3746504, 5.5977593]}, "properties": {"name": "Kampong Sungai Emas", "place": "village", "osm_id": 7647963633}}, {"type": "Feature", "geometry": {"type": "Point", "coordinates": [100.2816039, 5.2851365]}, "properties": {"name": "Taman Iping (Taman Batu Maung)", "place": "neighbourhood", "osm_id": 8128160241}}, {"type": "Feature", "geometry": {"type": "Point", "coordinates": [100.4819814, 5.1136148]}, "properties": {"name": "Taman Wawasan Jaya", "place": "neighbourhood", "osm_id": 8227356172}}, {"type": "Feature", "geometry": {"type": "Point", "coordinates": [100.4826188, 5.1663448]}, "properties": {"name": "Kampung Sanglang", "place": "hamlet", "osm_id": 8820598443}}, {"type": "Feature", "geometry": {"type": "Point", "coordinates": [100.3339606, 5.4066277]}, "properties": {"name": "Gat Lebuh Macallum", "place": "neighbourhood", "osm_id": 9095899003}}, {"type": "Feature", "geometry": {"type": "Point", "coordinates": [100.3276641, 5.3976095]}, "properties": {"name": "Bandar Sri Pinang", "place": "neighbourhood", "osm_id": 9095917925}}, {"type": "Feature", "geometry": {"type": "Point", "coordinates": [100.3128837, 5.3853066]}, "properties": {"name": "Bukit Dumbar", "place": "neighbourhood", "osm_id": 9095917927}}, {"type": "Feature", "geometry": {"type": "Point", "coordinates": [100.3038753, 5.3824312]}, "properties": {"name": "Island Glades", "place": "neighbourhood", "osm_id": 9095917929}}, {"type": "Feature", "geometry": {"type": "Point", "coordinates": [100.2131486, 5.3851743]}, "properties": {"name": "Sungai Rusa", "place": "village", "osm_id": 9095917930}}, {"type": "Feature", "geometry": {"type": "Point", "coordinates": [100.306229, 5.3797465]}, "properties": {"name": "Bukit Gelugor", "place": "neighbourhood", "osm_id": 9095917934}}, {"type": "Feature", "geometry": {"type": "Point", "coordinates": [100.3101677, 5.3937291]}, "properties": {"name": "Eastern Garden", "place": "neighbourhood", "osm_id": 9096628823}}, {"type": "Feature", "geometry": {"type": "Point", "coordinates": [100.3372627, 5.4105074]}, "properties": {"name": "Jeti Yeoh", "place": "neighbourhood", "osm_id": 9141191878}}, {"type": "Feature", "geometry": {"type": "Point", "coordinates": [100.337459, 5.4113073]}, "properties": {"name": "Jeti Baru", "place": "neighbourhood", "osm_id": 9141191927}}, {"type": "Feature", "geometry": {"type": "Point", "coordinates": [100.3101445, 5.4131534]}, "properties": {"name": "Dhoby Ghaut", "place": "neighbourhood", "osm_id": 9196670404}}, {"type": "Feature", "geometry": {"type": "Point", "coordinates": [100.3092801, 5.4107993]}, "properties": {"name": "Kebun Lama", "place": "neighbourhood", "osm_id": 9459472900}}, {"type": "Feature", "geometry": {"type": "Point", "coordinates": [100.4831796, 5.120252]}, "properties": {"name": "Taman Seri Tenggara", "place": "neighbourhood", "osm_id": 9467059600}}, {"type": "Feature", "geometry": {"type": "Point", "coordinates": [100.4800011, 5.1214891]}, "properties": {"name": "Taman Kerian Permai", "place": "neighbourhood", "osm_id": 9467059602}}, {"type": "Feature", "geometry": {"type": "Point", "coordinates": [100.4863096, 5.1027092]}, "properties": {"name": "Kampung Melaka", "place": "hamlet", "osm_id": 9467075923}}, {"type": "Feature", "geometry": {"type": "Point", "coordinates": [100.4627139, 5.372474]}, "properties": {"name": "Kampung Paya", "place": "hamlet", "osm_id": 9469019383}}, {"type": "Feature", "geometry": {"type": "Point", "coordinates": [100.4933515, 5.4035823]}, "properties": {"name": "Kampung Mengkuang Semarak", "place": "hamlet", "osm_id": 9469286950}}, {"type": "Feature", "geometry": {"type": "Point", "coordinates": [100.4009636, 5.3905371]}, "properties": {"name": "Seri Tenggiri", "place": "neighbourhood", "osm_id": 9470700215}}, {"type": "Feature", "geometry": {"type": "Point", "coordinates": [100.4213762, 5.4458875]}, "properties": {"name": "Kampung Teluk", "place": "hamlet", "osm_id": 9471190393}}, {"type": "Feature", "geometry": {"type": "Point", "coordinates": [100.4277906, 5.4444521]}, "properties": {"name": "Kampung Tok Adam", "place": "hamlet", "osm_id": 9471190394}}, {"type": "Feature", "geometry": {"type": "Point", "coordinates": [100.3759433, 5.5255761]}, "properties": {"name": "Taman Kuala Bekah", "place": "neighbourhood", "osm_id": 9472586230}}, {"type": "Feature", "geometry": {"type": "Point", "coordinates": [100.5432404, 5.1696934]}, "properties": {"name": "Kampung Sungai Buaya", "place": "hamlet", "osm_id": 9472697890}}, {"type": "Feature", "geometry": {"type": "Point", "coordinates": [100.2955142, 5.4053493]}, "properties": {"name": "Kampung Baru", "place": "hamlet", "osm_id": 9488460915}}, {"type": "Feature", "geometry": {"type": "Point", "coordinates": [100.570986, 5.5516308]}, "properties": {"name": "Kampung Banggol", "place": "village", "osm_id": 9547852701}}, {"type": "Feature", "geometry": {"type": "Point", "coordinates": [100.5157543, 5.5940695]}, "properties": {"name": "Bandar Sri Astana", "place": "suburb", "osm_id": 9547899113}}, {"type": "Feature", "geometry": {"type": "Point", "coordinates": [100.4479184, 5.5836118]}, "properties": {"name": "Kampung Paya Kerchut", "place": "hamlet", "osm_id": 9551477714}}, {"type": "Feature", "geometry": {"type": "Point", "coordinates": [100.2663835, 5.3223655]}, "properties": {"name": "Desa Ria", "place": "neighbourhood", "osm_id": 9551744680}}, {"type": "Feature", "geometry": {"type": "Point", "coordinates": [100.2744907, 5.3272821]}, "properties": {"name": "Taman Tunas Muda", "place": "neighbourhood", "osm_id": 9558712267}}, {"type": "Feature", "geometry": {"type": "Point", "coordinates": [100.5358914, 5.366119]}, "properties": {"name": "Taman Petaling Indah", "place": "neighbourhood", "osm_id": 9571403158}}, {"type": "Feature", "geometry": {"type": "Point", "coordinates": [100.5326596, 5.3808056]}, "properties": {"name": "Taman Selasih \u2163", "place": "neighbourhood", "osm_id": 9571403269}}, {"type": "Feature", "geometry": {"type": "Point", "coordinates": [100.5377652, 5.3911806]}, "properties": {"name": "Taman Saga", "place": "neighbourhood", "osm_id": 9571403337}}, {"type": "Feature", "geometry": {"type": "Point", "coordinates": [100.478301, 5.476325]}, "properties": {"name": "Kampung Belukar", "place": "hamlet", "osm_id": 9572706278}}, {"type": "Feature", "geometry": {"type": "Point", "coordinates": [100.4129684, 5.1116169]}, "properties": {"name": "Sungai Kota", "place": "village", "osm_id": 9622816239}}, {"type": "Feature", "geometry": {"type": "Point", "coordinates": [100.4257035, 5.1245732]}, "properties": {"name": "Kampung Batu Empat", "place": "hamlet", "osm_id": 9622816285}}, {"type": "Feature", "geometry": {"type": "Point", "coordinates": [100.5936999, 5.5539079]}, "properties": {"name": "Kampung Lubok Kiab", "place": "village", "osm_id": 9704784667}}, {"type": "Feature", "geometry": {"type": "Point", "coordinates": [100.2609834, 5.2979538]}, "properties": {"name": "Kampung Air Terjun", "place": "neighbourhood", "osm_id": 9784382595}}, {"type": "Feature", "geometry": {"type": "Point", "coordinates": [100.2623192, 5.2973972]}, "properties": {"name": "Kampung Perlis", "place": "neighbourhood", "osm_id": 9784382596}}, {"type": "Feature", "geometry": {"type": "Point", "coordinates": [100.2708438, 5.3286821]}, "properties": {"name": "Taman Pagar Buloh", "place": "neighbourhood", "osm_id": 9959625936}}, {"type": "Feature", "geometry": {"type": "Point", "coordinates": [100.389574, 5.3817874]}, "properties": {"name": "Taman Perai", "place": "neighbourhood", "osm_id": 9960163418}}, {"type": "Feature", "geometry": {"type": "Point", "coordinates": [100.5117962, 5.5580063]}, "properties": {"name": "Bukit Sementol", "place": "hamlet", "osm_id": 9960199228}}, {"type": "Feature", "geometry": {"type": "Point", "coordinates": [100.5042779, 5.5579616]}, "properties": {"name": "Permatang Saga", "place": "hamlet", "osm_id": 9960199229}}, {"type": "Feature", "geometry": {"type": "Point", "coordinates": [100.4937165, 5.4774969]}, "properties": {"name": "Permatang Manggis", "place": "hamlet", "osm_id": 9960199230}}, {"type": "Feature", "geometry": {"type": "Point", "coordinates": [100.4938996, 5.4714369]}, "properties": {"name": "Pengkalan Batu", "place": "hamlet", "osm_id": 9960199235}}, {"type": "Feature", "geometry": {"type": "Point", "coordinates": [100.491931, 5.4578261]}, "properties": {"name": "Padang Chempedak", "place": "hamlet", "osm_id": 9960199236}}, {"type": "Feature", "geometry": {"type": "Point", "coordinates": [100.5822872, 5.3590183]}, "properties": {"name": "Kampung Batu 4", "place": "hamlet", "osm_id": 9970666670}}, {"type": "Feature", "geometry": {"type": "Point", "coordinates": [100.5836423, 5.3681624]}, "properties": {"name": "Taman Bestari", "place": "neighbourhood", "osm_id": 9970666695}}, {"type": "Feature", "geometry": {"type": "Point", "coordinates": [100.5804462, 5.3701184]}, "properties": {"name": "Taman Merak", "place": "neighbourhood", "osm_id": 9970666697}}, {"type": "Feature", "geometry": {"type": "Point", "coordinates": [100.580696, 5.3732105]}, "properties": {"name": "Taman Bayan", "place": "neighbourhood", "osm_id": 9970666698}}, {"type": "Feature", "geometry": {"type": "Point", "coordinates": [100.5469558, 5.3634183]}, "properties": {"name": "Taman Bunga Mawar", "place": "neighbourhood", "osm_id": 9970666746}}, {"type": "Feature", "geometry": {"type": "Point", "coordinates": [100.5402103, 5.3632607]}, "properties": {"name": "Taman Jelutong 2", "place": "neighbourhood", "osm_id": 9970666747}}, {"type": "Feature", "geometry": {"type": "Point", "coordinates": [100.5315271, 5.3612682]}, "properties": {"name": "Taman Kempas Merah", "place": "neighbourhood", "osm_id": 9970666758}}, {"type": "Feature", "geometry": {"type": "Point", "coordinates": [100.5297678, 5.3603924]}, "properties": {"name": "Taman Kempas 3", "place": "neighbourhood", "osm_id": 9970666759}}, {"type": "Feature", "geometry": {"type": "Point", "coordinates": [100.5360469, 5.4249355]}, "properties": {"name": "Taman Sang Kancil", "place": "neighbourhood", "osm_id": 9970666773}}, {"type": "Feature", "geometry": {"type": "Point", "coordinates": [100.5396268, 5.4303628]}, "properties": {"name": "Taman Desa Seni", "place": "neighbourhood", "osm_id": 9970666778}}, {"type": "Feature", "geometry": {"type": "Point", "coordinates": [100.5451347, 5.4317829]}, "properties": {"name": "Taman Saujana Indah", "place": "neighbourhood", "osm_id": 9970666779}}, {"type": "Feature", "geometry": {"type": "Point", "coordinates": [100.5674381, 5.3682492]}, "properties": {"name": "Taman Kenari Zon 1", "place": "neighbourhood", "osm_id": 9970674808}}, {"type": "Feature", "geometry": {"type": "Point", "coordinates": [100.4845292, 5.5894696]}, "properties": {"name": "Kampung Kilang Makau", "place": "hamlet", "osm_id": 9976255984}}, {"type": "Feature", "geometry": {"type": "Point", "coordinates": [100.543136, 5.4708522]}, "properties": {"name": "Kampung Batu 8", "place": "hamlet", "osm_id": 9980994472}}, {"type": "Feature", "geometry": {"type": "Point", "coordinates": [100.5087693, 5.1798869]}, "properties": {"name": "Kampung Paya Kemian", "place": "hamlet", "osm_id": 9989537020}}, {"type": "Feature", "geometry": {"type": "Point", "coordinates": [100.5087332, 5.1845375]}, "properties": {"name": "Kampung Ladang Sempah", "place": "hamlet", "osm_id": 9989537021}}, {"type": "Feature", "geometry": {"type": "Point", "coordinates": [100.5106456, 5.2043926]}, "properties": {"name": "Kampung Changkat Dain", "place": "hamlet", "osm_id": 9989537058}}, {"type": "Feature", "geometry": {"type": "Point", "coordinates": [100.5038562, 5.2188156]}, "properties": {"name": "Kampung Permatang Ara", "place": "hamlet", "osm_id": 9989562579}}, {"type": "Feature", "geometry": {"type": "Point", "coordinates": [100.5027809, 5.2402518]}, "properties": {"name": "Kampung Lima Kongsi", "place": "hamlet", "osm_id": 9989562581}}, {"type": "Feature", "geometry": {"type": "Point", "coordinates": [100.4867117, 5.1345563]}, "properties": {"name": "Taman Transkrian", "place": "neighbourhood", "osm_id": 10030005578}}, {"type": "Feature", "geometry": {"type": "Point", "coordinates": [100.4896042, 5.1344446]}, "properties": {"name": "Taman Sempadan", "place": "neighbourhood", "osm_id": 10030005579}}, {"type": "Feature", "geometry": {"type": "Point", "coordinates": [100.4855221, 5.1463513]}, "properties": {"name": "Ladang Transkrian", "place": "hamlet", "osm_id": 10030005623}}, {"type": "Feature", "geometry": {"type": "Point", "coordinates": [100.5119395, 5.1629769]}, "properties": {"name": "Kampung Sungai Kechil", "place": "hamlet", "osm_id": 10030173769}}, {"type": "Feature", "geometry": {"type": "Point", "coordinates": [100.5444477, 5.1740583]}, "properties": {"name": "Kampung Besar", "place": "hamlet", "osm_id": 10030173781}}, {"type": "Feature", "geometry": {"type": "Point", "coordinates": [100.2040335, 5.3137857]}, "properties": {"name": "Kampung Perlis", "place": "hamlet", "osm_id": 10082182968}}, {"type": "Feature", "geometry": {"type": "Point", "coordinates": [100.2159302, 5.3388712]}, "properties": {"name": "Kampung Permatang Tengah", "place": "hamlet", "osm_id": 10082182979}}, {"type": "Feature", "geometry": {"type": "Point", "coordinates": [100.5763853, 5.4955502]}, "properties": {"name": "Taman Raya Indah", "place": "neighbourhood", "osm_id": 10253206552}}, {"type": "Feature", "geometry": {"type": "Point", "coordinates": [100.5738374, 5.5041821]}, "properties": {"name": "Taman Raya Murni", "place": "neighbourhood", "osm_id": 10253206553}}, {"type": "Feature", "geometry": {"type": "Point", "coordinates": [100.313687, 5.3775669]}, "properties": {"name": "Bukit Tunku Kudin", "place": "neighbourhood", "osm_id": 10603786361}}, {"type": "Feature", "geometry": {"type": "Point", "coordinates": [100.3370992, 5.4092338]}, "properties": {"name": "Kampung Merdeka", "place": "neighbourhood", "osm_id": 10603805393}}, {"type": "Feature", "geometry": {"type": "Point", "coordinates": [100.5287326, 5.4298048]}, "properties": {"name": "Taman Sutera Indah", "place": "neighbourhood", "osm_id": 10683956740}}, {"type": "Feature", "geometry": {"type": "Point", "coordinates": [100.48811, 5.4873247]}, "properties": {"name": "Permatang Berangan C", "place": "hamlet", "osm_id": 10687804799}}, {"type": "Feature", "geometry": {"type": "Point", "coordinates": [100.2922336, 5.3036085]}, "properties": {"name": "Zon Perindustrian Bebas Bayan Lepas Fasa IV", "place": "neighbourhood", "osm_id": 10688532178}}, {"type": "Feature", "geometry": {"type": "Point", "coordinates": [100.2975164, 5.3242062]}, "properties": {"name": "Zon Perindustrian Bebas Bayan Lepas Fasa III", "place": "neighbourhood", "osm_id": 10688700612}}, {"type": "Feature", "geometry": {"type": "Point", "coordinates": [100.537821, 5.4144879]}, "properties": {"name": "Kampung Sungai Limau", "place": "hamlet", "osm_id": 10693565946}}, {"type": "Feature", "geometry": {"type": "Point", "coordinates": [100.5035883, 5.1493989]}, "properties": {"name": "Kampung Teluk", "place": "hamlet", "osm_id": 10693703418}}, {"type": "Feature", "geometry": {"type": "Point", "coordinates": [100.5106145, 5.1395955]}, "properties": {"name": "Kampung Permatang Pasir", "place": "hamlet", "osm_id": 10693703461}}, {"type": "Feature", "geometry": {"type": "Point", "coordinates": [100.5024656, 5.1383746]}, "properties": {"name": "Taman Perumahan Awam 2", "place": "neighbourhood", "osm_id": 10693703540}}, {"type": "Feature", "geometry": {"type": "Point", "coordinates": [100.5269079, 5.1070054]}, "properties": {"name": "Kampung Kubu", "place": "hamlet", "osm_id": 10693703542}}, {"type": "Feature", "geometry": {"type": "Point", "coordinates": [100.5308869, 5.4289726]}, "properties": {"name": "Taman Indah", "place": "neighbourhood", "osm_id": 10699254483}}, {"type": "Feature", "geometry": {"type": "Point", "coordinates": [100.4764172, 5.1219861]}, "properties": {"name": "Kampung Kedah", "place": "village", "osm_id": 10709886681}}, {"type": "Feature", "geometry": {"type": "Point", "coordinates": [100.5300225, 5.4273454]}, "properties": {"name": "Taman Kijang", "place": "neighbourhood", "osm_id": 10832172105}}, {"type": "Feature", "geometry": {"type": "Point", "coordinates": [100.5286262, 5.1230899]}, "properties": {"name": "Kampung Sungai Tepus", "place": "hamlet", "osm_id": 10832208428}}, {"type": "Feature", "geometry": {"type": "Point", "coordinates": [100.4867741, 5.123315]}, "properties": {"name": "Taman Seri Wangsa", "place": "neighbourhood", "osm_id": 10832208453}}, {"type": "Feature", "geometry": {"type": "Point", "coordinates": [100.4857181, 5.125366]}, "properties": {"name": "Taman Damai 3", "place": "neighbourhood", "osm_id": 10832208474}}, {"type": "Feature", "geometry": {"type": "Point", "coordinates": [100.4846008, 5.1314185]}, "properties": {"name": "Taman Raja Sir Chulan", "place": "neighbourhood", "osm_id": 10832208498}}, {"type": "Feature", "geometry": {"type": "Point", "coordinates": [100.5351635, 5.2946931]}, "properties": {"name": "Kampung Padang Janggus", "place": "hamlet", "osm_id": 11028480261}}, {"type": "Feature", "geometry": {"type": "Point", "coordinates": [100.3197918, 5.4001655]}, "properties": {"name": "West Jelutong", "place": "neighbourhood", "osm_id": 11040135584}}, {"type": "Feature", "geometry": {"type": "Point", "coordinates": [100.3071594, 5.3853632]}, "properties": {"name": "Taman Gelugor", "place": "neighbourhood", "osm_id": 11102636491}}, {"type": "Feature", "geometry": {"type": "Point", "coordinates": [100.3101928, 5.387132]}, "properties": {"name": "Taman Jelutong", "place": "neighbourhood", "osm_id": 11102636492}}, {"type": "Feature", "geometry": {"type": "Point", "coordinates": [100.4755362, 5.2928006]}, "properties": {"name": "Kampung Tongkang", "place": "hamlet", "osm_id": 11236880137}}, {"type": "Feature", "geometry": {"type": "Point", "coordinates": [100.5456243, 5.5426854]}, "properties": {"name": "Kampung Tanjung Belit", "place": "village", "osm_id": 11245696191}}, {"type": "Feature", "geometry": {"type": "Point", "coordinates": [100.5412905, 5.5451396]}, "properties": {"name": "Kampung Banggol Besi", "place": "village", "osm_id": 11245696192}}, {"type": "Feature", "geometry": {"type": "Point", "coordinates": [100.5367731, 5.3459887]}, "properties": {"name": "Taman Melur / Taman Melur Indah", "place": "neighbourhood", "osm_id": 11623778580}}, {"type": "Feature", "geometry": {"type": "Point", "coordinates": [100.5365933, 5.3482794]}, "properties": {"name": "Taman Anggerik", "place": "neighbourhood", "osm_id": 11623778582}}, {"type": "Feature", "geometry": {"type": "Point", "coordinates": [100.5384088, 5.3467202]}, "properties": {"name": "Taman Seroja", "place": "neighbourhood", "osm_id": 11623778583}}, {"type": "Feature", "geometry": {"type": "Point", "coordinates": [100.4825566, 5.1237387]}, "properties": {"name": "Taman Sri Semarak", "place": "neighbourhood", "osm_id": 12029103905}}, {"type": "Feature", "geometry": {"type": "Point", "coordinates": [100.5348739, 5.3876007]}, "properties": {"name": "Kampung Pondok Labu Atas", "place": "hamlet", "osm_id": 12049283057}}, {"type": "Feature", "geometry": {"type": "Point", "coordinates": [100.5395794, 5.4192231]}, "properties": {"name": "Taman Mewah II & III", "place": "neighbourhood", "osm_id": 12049685179}}, {"type": "Feature", "geometry": {"type": "Point", "coordinates": [100.4774192, 5.1205077]}, "properties": {"name": "Taman Kerian Permai 1", "place": "neighbourhood", "osm_id": 12102913419}}, {"type": "Feature", "geometry": {"type": "Point", "coordinates": [100.478306, 5.4519717]}, "properties": {"name": "Jarak Atas", "place": "hamlet", "osm_id": 12104089075}}, {"type": "Feature", "geometry": {"type": "Point", "coordinates": [100.4770352, 5.453738]}, "properties": {"name": "Jarak Tengah", "place": "hamlet", "osm_id": 12104089118}}, {"type": "Feature", "geometry": {"type": "Point", "coordinates": [100.5383993, 5.4240495]}, "properties": {"name": "Taman Sejahtera / Taman Mewah 1", "place": "neighbourhood", "osm_id": 12110959086}}, {"type": "Feature", "geometry": {"type": "Point", "coordinates": [100.5424162, 5.3847048]}, "properties": {"name": "Taman Merawan", "place": "neighbourhood", "osm_id": 12111033972}}, {"type": "Feature", "geometry": {"type": "Point", "coordinates": [100.4495544, 5.4092327]}, "properties": {"name": "Kampung Kepala Bukit", "place": "hamlet", "osm_id": 12111464798}}, {"type": "Feature", "geometry": {"type": "Point", "coordinates": [100.4695294, 5.1355211]}, "properties": {"name": "Permatang Keling", "place": "hamlet", "osm_id": 12117907043}}, {"type": "Feature", "geometry": {"type": "Point", "coordinates": [100.4894149, 5.1657943]}, "properties": {"name": "Taman Helang Jaya", "place": "neighbourhood", "osm_id": 12117915393}}, {"type": "Feature", "geometry": {"type": "Point", "coordinates": [100.4985937, 5.1667487]}, "properties": {"name": "Kampung Ladang Kerian", "place": "hamlet", "osm_id": 12117939443}}, {"type": "Feature", "geometry": {"type": "Point", "coordinates": [100.4877578, 5.3487932]}, "properties": {"name": "Kampung Jalan Kolam", "place": "hamlet", "osm_id": 12137157154}}, {"type": "Feature", "geometry": {"type": "Point", "coordinates": [100.4860371, 5.3470694]}, "properties": {"name": "Kampung Cherok To'Kun Bawah", "place": "hamlet", "osm_id": 12137157155}}, {"type": "Feature", "geometry": {"type": "Point", "coordinates": [100.494765, 5.3443561]}, "properties": {"name": "Kampung Cherok To'kun Atas", "place": "hamlet", "osm_id": 12137157157}}, {"type": "Feature", "geometry": {"type": "Point", "coordinates": [100.4948589, 5.3474085]}, "properties": {"name": "Kampung Binjai", "place": "hamlet", "osm_id": 12137157158}}, {"type": "Feature", "geometry": {"type": "Point", "coordinates": [100.4925428, 5.3391712]}, "properties": {"name": "Kampung Janggus", "place": "hamlet", "osm_id": 12137692340}}, {"type": "Feature", "geometry": {"type": "Point", "coordinates": [100.4893108, 5.339736]}, "properties": {"name": "Kampung Pisang", "place": "hamlet", "osm_id": 12137692418}}, {"type": "Feature", "geometry": {"type": "Point", "coordinates": [100.4840496, 5.3434855]}, "properties": {"name": "Kampung Jalan Kilang Ubi", "place": "hamlet", "osm_id": 12137692420}}, {"type": "Feature", "geometry": {"type": "Point", "coordinates": [100.4854497, 5.3408149]}, "properties": {"name": "Kampung Jalan Rozhan", "place": "hamlet", "osm_id": 12137692421}}, {"type": "Feature", "geometry": {"type": "Point", "coordinates": [100.4503664, 5.2723539]}, "properties": {"name": "Kampung Sekolah Simpang Ampat", "place": "hamlet", "osm_id": 12140078010}}, {"type": "Feature", "geometry": {"type": "Point", "coordinates": [100.4487719, 5.2718397]}, "properties": {"name": "Kampung Ah Chooi", "place": "hamlet", "osm_id": 12140078011}}, {"type": "Feature", "geometry": {"type": "Point", "coordinates": [100.451446, 5.5899165]}, "properties": {"name": "Kampung Tanah Lot Padang Buluh", "place": "hamlet", "osm_id": 12146402133}}, {"type": "Feature", "geometry": {"type": "Point", "coordinates": [100.557514, 5.352568]}, "properties": {"name": "Kampung Darul Aman", "place": "hamlet", "osm_id": 12149797157}}, {"type": "Feature", "geometry": {"type": "Point", "coordinates": [100.5540191, 5.3478171]}, "properties": {"name": "Kampung Bukit Besar", "place": "hamlet", "osm_id": 12149799545}}, {"type": "Feature", "geometry": {"type": "Point", "coordinates": [100.5569789, 5.1775658]}, "properties": {"name": "Kampung Balai Lama", "place": "hamlet", "osm_id": 12151828201}}, {"type": "Feature", "geometry": {"type": "Point", "coordinates": [100.5498429, 5.1825664]}, "properties": {"name": "Kampung Keda", "place": "hamlet", "osm_id": 12151828225}}, {"type": "Feature", "geometry": {"type": "Point", "coordinates": [100.5893478, 5.1968494]}, "properties": {"name": "Kampung Batu Hampar", "place": "hamlet", "osm_id": 12151828312}}, {"type": "Feature", "geometry": {"type": "Point", "coordinates": [100.4988581, 5.57241]}, "properties": {"name": "Kampung Bakar Bata", "place": "hamlet", "osm_id": 12153570461}}, {"type": "Feature", "geometry": {"type": "Point", "coordinates": [100.4995233, 5.5680106]}, "properties": {"name": "Kampung Pinang Tunggal", "place": "village", "osm_id": 12153570462}}, {"type": "Feature", "geometry": {"type": "Point", "coordinates": [100.3136275, 5.4266723]}, "properties": {"name": "Kampung Sireh", "place": "neighbourhood", "osm_id": 12167300640}}, {"type": "Feature", "geometry": {"type": "Point", "coordinates": [100.5297922, 5.3734273]}, "properties": {"name": "Taman Angsana", "place": "neighbourhood", "osm_id": 12167761361}}, {"type": "Feature", "geometry": {"type": "Point", "coordinates": [100.5431812, 5.3817712]}, "properties": {"name": "Taman Seraya Indah II", "place": "neighbourhood", "osm_id": 12167763804}}, {"type": "Feature", "geometry": {"type": "Point", "coordinates": [100.5403874, 5.4445778]}, "properties": {"name": "Taman Seri Sentosa", "place": "neighbourhood", "osm_id": 12167763833}}, {"type": "Feature", "geometry": {"type": "Point", "coordinates": [100.4585834, 5.4767378]}, "properties": {"name": "Denai Desa", "place": "neighbourhood", "osm_id": 12168104210}}, {"type": "Feature", "geometry": {"type": "Point", "coordinates": [100.4505247, 5.4847188]}, "properties": {"name": "Kampung Banggol", "place": "hamlet", "osm_id": 12174523899}}, {"type": "Feature", "geometry": {"type": "Point", "coordinates": [100.4467196, 5.478665]}, "properties": {"name": "Permatang Kerai Kecil", "place": "hamlet", "osm_id": 12174609504}}, {"type": "Feature", "geometry": {"type": "Point", "coordinates": [100.4390359, 5.4774844]}, "properties": {"name": "Permatang Kerai Besar", "place": "hamlet", "osm_id": 12174609517}}, {"type": "Feature", "geometry": {"type": "Point", "coordinates": [100.4376119, 5.4842119]}, "properties": {"name": "Kampung Lama", "place": "hamlet", "osm_id": 12174609524}}, {"type": "Feature", "geometry": {"type": "Point", "coordinates": [100.4321281, 5.4859396]}, "properties": {"name": "Permatang Haji Hassan", "place": "hamlet", "osm_id": 12174609525}}, {"type": "Feature", "geometry": {"type": "Point", "coordinates": [100.4433222, 5.4856288]}, "properties": {"name": "Kampung Aman", "place": "hamlet", "osm_id": 12174609534}}, {"type": "Feature", "geometry": {"type": "Point", "coordinates": [100.471977, 5.1065997]}, "properties": {"name": "Taman Meranti 2", "place": "neighbourhood", "osm_id": 12367675911}}, {"type": "Feature", "geometry": {"type": "Point", "coordinates": [100.4721661, 5.1071407]}, "properties": {"name": "Taman Meranti 1", "place": "neighbourhood", "osm_id": 12367675912}}, {"type": "Feature", "geometry": {"type": "Point", "coordinates": [100.495103, 5.1236227]}, "properties": {"name": "Taman Kerian Sentosa", "place": "neighbourhood", "osm_id": 12422659181}}, {"type": "Feature", "geometry": {"type": "Point", "coordinates": [100.4936231, 5.1313584]}, "properties": {"name": "Pekan Lama Bandar Baharu", "place": "neighbourhood", "osm_id": 12434275158}}, {"type": "Feature", "geometry": {"type": "Point", "coordinates": [100.4961879, 5.1309838]}, "properties": {"name": "Pekan Bandar Baharu", "place": "neighbourhood", "osm_id": 12434275169}}, {"type": "Feature", "geometry": {"type": "Point", "coordinates": [100.4372788, 5.1469084]}, "properties": {"name": "Kampung Sungai Star Kechil", "place": "hamlet", "osm_id": 12513978601}}, {"type": "Feature", "geometry": {"type": "Point", "coordinates": [100.4706833, 5.1652813]}, "properties": {"name": "Taman Nuri", "place": "neighbourhood", "osm_id": 12513978606}}, {"type": "Feature", "geometry": {"type": "Point", "coordinates": [100.4726752, 5.169368]}, "properties": {"name": "Taman Nibong Tebal", "place": "neighbourhood", "osm_id": 12513978607}}, {"type": "Feature", "geometry": {"type": "Point", "coordinates": [100.4562213, 5.1488968]}, "properties": {"name": "Kampung Sungai Setar Besar", "place": "hamlet", "osm_id": 12531621404}}, {"type": "Feature", "geometry": {"type": "Point", "coordinates": [100.4699034, 5.1640379]}, "properties": {"name": "Taman Nuri Indah", "place": "neighbourhood", "osm_id": 12531621411}}, {"type": "Feature", "geometry": {"type": "Point", "coordinates": [100.4880253, 5.1142167]}, "properties": {"name": "Taman Kerian Tambahan 5 & 6", "place": "neighbourhood", "osm_id": 12542124742}}, {"type": "Feature", "geometry": {"type": "Point", "coordinates": [100.5374235, 5.4269418]}, "properties": {"name": "Perumahan Awam Lunas", "place": "neighbourhood", "osm_id": 12543228639}}, {"type": "Feature", "geometry": {"type": "Point", "coordinates": [100.4631699, 5.1731628]}, "properties": {"name": "Taman Seri Bistari", "place": "neighbourhood", "osm_id": 12549233509}}, {"type": "Feature", "geometry": {"type": "Point", "coordinates": [100.4778872, 5.1092339]}, "properties": {"name": "Kampung Perak", "place": "hamlet", "osm_id": 12550407163}}, {"type": "Feature", "geometry": {"type": "Point", "coordinates": [100.3150379, 5.3861725]}, "properties": {"name": "Kampung Ban Liow", "place": "neighbourhood", "osm_id": 12564889410}}, {"type": "Feature", "geometry": {"type": "Point", "coordinates": [100.4898821, 5.1237643]}, "properties": {"name": "Taman Toh Jabit", "place": "neighbourhood", "osm_id": 12568205910}}, {"type": "Feature", "geometry": {"type": "Point", "coordinates": [100.4440808, 5.274541]}, "properties": {"name": "Ban Liau", "place": "hamlet", "osm_id": 12569419203}}, {"type": "Feature", "geometry": {"type": "Point", "coordinates": [100.4578795, 5.1284203]}, "properties": {"name": "Kampung Sungai Setar", "place": "hamlet", "osm_id": 12597176440}}, {"type": "Feature", "geometry": {"type": "Point", "coordinates": [100.4927975, 5.4861847]}, "properties": {"name": "Permatang Berangan A", "place": "hamlet", "osm_id": 12622698453}}, {"type": "Feature", "geometry": {"type": "Point", "coordinates": [100.3806743, 5.4479232]}, "properties": {"name": "Kampung Contoh", "place": "hamlet", "osm_id": 12628564227}}, {"type": "Feature", "geometry": {"type": "Point", "coordinates": [100.4672591, 5.4420297]}, "properties": {"name": "Kampung Baru", "place": "hamlet", "osm_id": 12632002487}}, {"type": "Feature", "geometry": {"type": "Point", "coordinates": [100.5595073, 5.3836064]}, "properties": {"name": "Kampung Dusun", "place": "hamlet", "osm_id": 12650204563}}, {"type": "Feature", "geometry": {"type": "Point", "coordinates": [100.5570329, 5.5123715]}, "properties": {"name": "Taman Damai 2", "place": "neighbourhood", "osm_id": 12650217974}}, {"type": "Feature", "geometry": {"type": "Point", "coordinates": [100.5855025, 5.3779118]}, "properties": {"name": "Kampung Sera", "place": "hamlet", "osm_id": 13589493698}}, {"type": "Feature", "geometry": {"type": "Point", "coordinates": [100.5738884, 5.3709162]}, "properties": {"name": "Taman Tiong 1", "place": "neighbourhood", "osm_id": 13589515601}}]}